{
"type": "FeatureCollection",
"crs": { "type": "name", "properties": { "name": "urn:ogc:def:crs:OGC:1.3:CRS84" } },
                                                                                
"features": [
{ "type": "Feature", "properties": { "POI_TYPE": "Primary", "POI_NAME": "Ahmad Ibrahim Primary", "POI_ADD": "10 Yishun Street 11 S768643", "POSTCODE": "768643", "REMARK": null, "XI": 27933.167, "YI": 46216.879, "Tier" : "Tier 1" }, "geometry": { "type": "Point", "coordinates": [ 103.832694778612037, 1.434257482487066 ] } },
{ "type": "Feature", "properties": { "POI_TYPE": "Primary", "POI_NAME": "Aitong", "POI_ADD": "100Bright Hill Drive S579646", "POSTCODE": "579646", "REMARK": null, "XI": 27910.478, "YI": 38079.93, "Tier" : "Tier 1" }, "geometry": { "type": "Point", "coordinates": [ 103.832491534655858, 1.360669794591115 ] } },
{ "type": "Feature", "properties": { "POI_TYPE": "Primary", "POI_NAME": "Anderson Primary", "POI_ADD": "19 Ang Mo Kio Avenue 9 S569785", "POSTCODE": "569785", "REMARK": null, "XI": 28885.792, "YI": 40688.53, "Tier": "Tier 2" }, "geometry": { "type": "Point", "coordinates": [ 103.841255274436037, 1.384261114477917 ] } },
{ "type": "Feature", "properties": { "POI_TYPE": "Primary", "POI_NAME": "Ang Mo Kio Primary", "POI_ADD": "2 Ang Mo Kio Avenue 3 Street 21 S569384", "POSTCODE": "569384", "REMARK": null, "XI": 28182.858, "YI": 38951.394, "Tier": "Tier 2" }, "geometry": { "type": "Point", "coordinates": [ 103.834938994087622, 1.368551028484413 ] } },
{ "type": "Feature", "properties": { "POI_TYPE": "Primary", "POI_NAME": "Anglo-Chinese (Junior)", "POI_ADD": "25 Peck Hay Road S228315", "POSTCODE": "228315", "REMARK": null, "XI": 28471.495, "YI": 32441.405, "Tier" : "Tier 1" }, "geometry": { "type": "Point", "coordinates": [ 103.837532969988104, 1.309676980562003 ] } },
{ "type": "Feature", "properties": { "POI_TYPE": "Primary", "POI_NAME": "Anglo-Chinese (Primary)", "POI_ADD": "50 Barker Road S309919", "POSTCODE": "309919", "REMARK": null, "XI": 28298.125, "YI": 33547.087, "Tier": "Tier 2" }, "geometry": { "type": "Point", "coordinates": [ 103.835975087823101, 1.319676374032663 ] } },
{ "type": "Feature", "properties": { "POI_TYPE": "Primary", "POI_NAME": "Balestier Hill Primary", "POI_ADD": "565 Balestier Road S329927", "POSTCODE": "329927", "REMARK": null, "XI": 29258.552, "YI": 34256.88, "Tier": "Tier 3" }, "geometry": { "type": "Point", "coordinates": [ 103.844605007910872, 1.32609553935119 ] } },
{ "type": "Feature", "properties": { "POI_TYPE": "Primary", "POI_NAME": "Bedok Green Primary", "POI_ADD": "1 Bedok South Avenue 2 S469317", "POSTCODE": "469317", "REMARK": null, "XI": 39608.027, "YI": 34046.319, "Tier": "Tier 2"  }, "geometry": { "type": "Point", "coordinates": [ 103.93760066027221, 1.324189860565844 ] } },
{ "type": "Feature", "properties": { "POI_TYPE": "Primary", "POI_NAME": "Bedok West Primary", "POI_ADD": "3650 Bedok Resevoir Road S479225", "POSTCODE": "479225", "REMARK": null, "XI": 37633.255, "YI": 35339.599, "Tier": "Tier 3" }, "geometry": { "type": "Point", "coordinates": [ 103.919856577232508, 1.33588637184473 ] } },
{ "type": "Feature", "properties": { "POI_TYPE": "Primary", "POI_NAME": "Bendemeer Primary", "POI_ADD": "1062 Serangoon Road S328174", "POSTCODE": "328174", "REMARK": null, "XI": 31532.697, "YI": 33728.588, "Tier": "Tier 2" }, "geometry": { "type": "Point", "coordinates": [ 103.86503942630722, 1.3213178352771 ] } },
{ "type": "Feature", "properties": { "POI_TYPE": "Primary", "POI_NAME": "Blangah Rise Primary", "POI_ADD": "91 Telok Blangah Heights S109100", "POSTCODE": "109100", "REMARK": null, "XI": 25292.147, "YI": 28808.182, "Tier": "Tier 2" }, "geometry": { "type": "Point", "coordinates": [ 103.808965536482148, 1.276819036220062 ] } },
{ "type": "Feature", "properties": { "POI_TYPE": "Primary", "POI_NAME": "Boon Lay Garden Primary", "POI_ADD": "20 Boon Lay Drive S649930", "POSTCODE": "649930", "REMARK": null, "XI": 14623.741, "YI": 36213.414, "Tier": "Tier 3" }, "geometry": { "type": "Point", "coordinates": [ 103.713102201196193, 1.343785733427024 ] } },
{ "type": "Feature", "properties": { "POI_TYPE": "Primary", "POI_NAME": "Bukit Panjang Primary", "POI_ADD": "109 Cashew Road S679676", "POSTCODE": "679676", "REMARK": null, "XI": 20819.037, "YI": 39456.213, "Tier": "Tier 2" }, "geometry": { "type": "Point", "coordinates": [ 103.768769716163391, 1.373115009238777 ] } },
{ "type": "Feature", "properties": { "POI_TYPE": "Primary", "POI_NAME": "Bukit Timah Primary", "POI_ADD": "111 Lorong Kismis S598112", "POSTCODE": "598112", "REMARK": null, "XI": 20551.248, "YI": 35471.309, "Tier": "Tier 2" }, "geometry": { "type": "Point", "coordinates": [ 103.766364719364745, 1.337076887975801 ] } },
{ "type": "Feature", "properties": { "POI_TYPE": "Primary", "POI_NAME": "Bukit View Primary", "POI_ADD": "18 Bukit Batok Street 21 S659634", "POSTCODE": "659634", "REMARK": null, "XI": 19042.313, "YI": 36446.163 , "Tier": "Tier 2"}, "geometry": { "type": "Point", "coordinates": [ 103.752805691964269, 1.345892594369368 ] } },
{ "type": "Feature", "properties": { "POI_TYPE": "Primary", "POI_NAME": "Canberra Primary", "POI_ADD": "21 Admiralty Drive S757714", "POSTCODE": "757714", "REMARK": null, "XI": 26050.08, "YI": 48034.07, "Tier": "Tier 2" }, "geometry": { "type": "Point", "coordinates": [ 103.815773176690243, 1.450691291705558 ] } },
{ "type": "Feature", "properties": { "POI_TYPE": "Primary", "POI_NAME": "Canossa Convent Primary", "POI_ADD": "1 Sallim Road S387621", "POSTCODE": "387621", "REMARK": null, "XI": 33519.78, "YI": 34279.911, "Tier": "Tier 2" }, "geometry": { "type": "Point", "coordinates": [ 103.882894483780262, 1.326303656369616 ] } },
{ "type": "Feature", "properties": { "POI_TYPE": "Primary", "POI_NAME": "Casuarina Primary", "POI_ADD": "30 Pasir Ris Street 41 S518935", "POSTCODE": "518935", "REMARK": null, "XI": 41855.119, "YI": 39374.298, "Tier": "Tier 2" }, "geometry": { "type": "Point", "coordinates": [ 103.957794061569331, 1.372373382068511 ] } },
{ "type": "Feature", "properties": { "POI_TYPE": "Primary", "POI_NAME": "Catholic High", "POI_ADD": "9Bishan Street 22 S579767", "POSTCODE": "579767", "REMARK": null, "XI": 29175.269, "YI": 37504.362,  "Tier" : "Tier 1"}, "geometry": { "type": "Point", "coordinates": [ 103.843856555441377, 1.355464629660834 ] } },
{ "type": "Feature", "properties": { "POI_TYPE": "Primary", "POI_NAME": "Cedar Primary", "POI_ADD": "15 Cedar Avenue S349700", "POSTCODE": "349700", "REMARK": null, "XI": 32831.978, "YI": 35304.393, "Tier": "Tier 3" }, "geometry": { "type": "Point", "coordinates": [ 103.876714293070464, 1.335568781180433 ] } },
{ "type": "Feature", "properties": { "POI_TYPE": "Primary", "POI_NAME": "Changkat Primary", "POI_ADD": "21 Simei Street 3 S529887", "POSTCODE": "529887", "REMARK": null, "XI": 41234.118, "YI": 35810.653 , "Tier" : "Tier 1"}, "geometry": { "type": "Point", "coordinates": [ 103.952212608449713, 1.3401453131489 ] } },
{ "type": "Feature", "properties": { "POI_TYPE": "Primary", "POI_NAME": "Chij (Bukit Timah)", "POI_ADD": "4 Chestnut Drive S679287", "POSTCODE": "679287", "REMARK": null, "XI": 20788.735, "YI": 38703.878, "Tier": "Tier 3" }, "geometry": { "type": "Point", "coordinates": [ 103.768497669183617, 1.366311153582566 ] } },
{ "type": "Feature", "properties": { "POI_TYPE": "Primary", "POI_NAME": "Chij (Katong) Primary", "POI_ADD": "17 Martia Road S424821", "POSTCODE": "424821", "REMARK": null, "XI": 36586.907, "YI": 32118.159, "Tier": "Tier 2" }, "geometry": { "type": "Point", "coordinates": [ 103.910453859251206, 1.306753042709739 ] } },
{ "type": "Feature", "properties": { "POI_TYPE": "Primary", "POI_NAME": "Chij (Kellock)", "POI_ADD": "11 Jalan Kuala S239640", "POSTCODE": "239640", "REMARK": null, "XI": 28288.007, "YI": 30729.325, "Tier" : "Tier 1" }, "geometry": { "type": "Point", "coordinates": [ 103.835884344810694, 1.294193511868335 ] } },
{ "type": "Feature", "properties": { "POI_TYPE": "Primary", "POI_NAME": "Chij Our Lady Of Good Counsel", "POI_ADD": "2C Burghley Drive S558979", "POSTCODE": "558979", "REMARK": null, "XI": 31413.138, "YI": 37686.162, "Tier" : "Tier 1" }, "geometry": { "type": "Point", "coordinates": [ 103.863965284132348, 1.357108757552256 ] } },
{ "type": "Feature", "properties": { "POI_TYPE": "Primary", "POI_NAME": "Chij Our Lady Of The Nativity", "POI_ADD": "1257 Upper Serangoon Road S534793", "POSTCODE": "534793", "REMARK": null, "XI": 35224.684, "YI": 39445.137, "Tier": "Tier 2" }, "geometry": { "type": "Point", "coordinates": [ 103.898214846537925, 1.373015904906829 ] } },
{ "type": "Feature", "properties": { "POI_TYPE": "Primary", "POI_NAME": "Chij Primary (Toa Payoh)", "POI_ADD": "51 Jalan Rajah S329154", "POSTCODE": "329154", "REMARK": null, "XI": 30163.542, "YI": 34477.584, "Tier" : "Tier 1" }, "geometry": { "type": "Point", "coordinates": [ 103.852736839703027, 1.328091523810372 ] } },
{ "type": "Feature", "properties": { "POI_TYPE": "Primary", "POI_NAME": "Chij St.Nicholas Girls'", "POI_ADD": "501Ang Mo Kio Street 13 S569405", "POSTCODE": "569405", "REMARK": null, "XI": 28079.401, "YI": 39434.418, "Tier" : "Tier 1" }, "geometry": { "type": "Point", "coordinates": [ 103.834009325637624, 1.372919320343476 ] } },
{ "type": "Feature", "properties": { "POI_TYPE": "Primary", "POI_NAME": "Chongfu Primary", "POI_ADD": "170 Yishun Avenue 6 S768959", "POSTCODE": "768959", "REMARK": null, "XI": 28661.056, "YI": 46674.1, "Tier" : "Tier 1" }, "geometry": { "type": "Point", "coordinates": [ 103.839235531619067, 1.4383924751013 ] } },
{ "type": "Feature", "properties": { "POI_TYPE": "Primary", "POI_NAME": "Chongzheng Primary", "POI_ADD": "1 Tampines Street 21 S529392", "POSTCODE": "529392", "REMARK": null, "XI": 41152.577, "YI": 37028.393, "Tier": "Tier 2" }, "geometry": { "type": "Point", "coordinates": [ 103.951480355282641, 1.351158141476338 ] } },
{ "type": "Feature", "properties": { "POI_TYPE": "Primary", "POI_NAME": "Chua Chu Kang Prmary", "POI_ADD": "20 Choa Chu Kang Avenue 2 S689905", "POSTCODE": "689905", "REMARK": null, "XI": 17839.151, "YI": 39935.794, "Tier": "Tier 3" }, "geometry": { "type": "Point", "coordinates": [ 103.741993091144323, 1.377451062593172 ] } },
{ "type": "Feature", "properties": { "POI_TYPE": "Primary", "POI_NAME": "Clementi Primary", "POI_ADD": "8 Clementi Avenue 3 S129903", "POSTCODE": "129903", "REMARK": null, "XI": 20209.271, "YI": 33083.767 , "Tier": "Tier 2"}, "geometry": { "type": "Point", "coordinates": [ 103.763292632314887, 1.315484704767687 ] } },
{ "type": "Feature", "properties": { "POI_TYPE": "Primary", "POI_NAME": "Compassvale Primary", "POI_ADD": "21 Compassvale Street S545091", "POSTCODE": "545091", "REMARK": null, "XI": 35165.545, "YI": 41885.784 , "Tier": "Tier 2"}, "geometry": { "type": "Point", "coordinates": [ 103.897683853070461, 1.395088259583337 ] } },
{ "type": "Feature", "properties": { "POI_TYPE": "Primary", "POI_NAME": "Concord Primary", "POI_ADD": "3 Choa Chu Kang Avenue 4 S689814", "POSTCODE": "689814", "REMARK": null, "XI": 17261.696, "YI": 40198.456, "Tier": "Tier 2" }, "geometry": { "type": "Point", "coordinates": [ 103.736804117056096, 1.379826231428728 ] } },
{ "type": "Feature", "properties": { "POI_TYPE": "Primary", "POI_NAME": "Corporation Primary", "POI_ADD": "31 Jurong West Street 24 S648374", "POSTCODE": "648374", "REMARK": null, "XI": 13110.967, "YI": 37146.735, "Tier": "Tier 3" }, "geometry": { "type": "Point", "coordinates": [ 103.699508471601561, 1.352225510203293 ] } },
{ "type": "Feature", "properties": { "POI_TYPE": "Primary", "POI_NAME": "Da Qiao Primary", "POI_ADD": "8 Ang Mo Kio Street 54 S569185", "POSTCODE": "569185", "REMARK": null, "XI": 30901.047, "YI": 39351.817, "Tier": "Tier 3" }, "geometry": { "type": "Point", "coordinates": [ 103.859363846954025, 1.372172373336431 ] } },
{ "type": "Feature", "properties": { "POI_TYPE": "Primary", "POI_NAME": "Damai Primary", "POI_ADD": "3652 Bedok Reservoir Cresent S479226", "POSTCODE": "479226", "REMARK": null, "XI": 37719.303, "YI": 35388.365, "Tier": "Tier 3" }, "geometry": { "type": "Point", "coordinates": [ 103.920629780893094, 1.336327372937568 ] } },
{ "type": "Feature", "properties": { "POI_TYPE": "Primary", "POI_NAME": "Dazhong", "POI_ADD": "35 Bukit Batok Street 31 S659441", "POSTCODE": "659441", "REMARK": null, "XI": 18521.526, "YI": 37900.409, "Tier": "Tier 3" }, "geometry": { "type": "Point", "coordinates": [ 103.748125533059024, 1.35904406602102 ] } },
{ "type": "Feature", "properties": { "POI_TYPE": "Primary", "POI_NAME": "De La Salle", "POI_ADD": "11 Choa Chu Kang North Street 52 S689285", "POSTCODE": "689285", "REMARK": null, "XI": 18003.039, "YI": 41813.911, "Tier": "Tier 2" }, "geometry": { "type": "Point", "coordinates": [ 103.743464965265076, 1.394436127943695 ] } },
{ "type": "Feature", "properties": { "POI_TYPE": "Primary", "POI_NAME": "East Coast Primary", "POI_ADD": "8 Chai Chee Lane S469031", "POSTCODE": "469031", "REMARK": null, "XI": 37550.954, "YI": 34581.848, "Tier": "Tier 2" }, "geometry": { "type": "Point", "coordinates": [ 103.91911687191093, 1.329033560631134 ] } },
{ "type": "Feature", "properties": { "POI_TYPE": "Primary", "POI_NAME": "East Spring Primary", "POI_ADD": "31 Tampines Street 33 S529258", "POSTCODE": "529258", "REMARK": null, "XI": 42305.223, "YI": 37269.392, "Tier": "Tier 2" }, "geometry": { "type": "Point", "coordinates": [ 103.961837715239014, 1.353337203415118 ] } },
{ "type": "Feature", "properties": { "POI_TYPE": "Primary", "POI_NAME": "East View Primary", "POI_ADD": "4 Tampines Street 91 S528907", "POSTCODE": "528907", "REMARK": null, "XI": 39766.799, "YI": 36556.579, "Tier": "Tier 3" }, "geometry": { "type": "Point", "coordinates": [ 103.939028102208923, 1.346891701354009 ] } },
{ "type": "Feature", "properties": { "POI_TYPE": "Primary", "POI_NAME": "Edgefield Primary", "POI_ADD": "41 Edgefield Plains S828869", "POSTCODE": "828869", "REMARK": null, "XI": 36291.386, "YI": 42403.52, "Tier": "Tier 2" }, "geometry": { "type": "Point", "coordinates": [ 103.907800548770425, 1.399770263621634 ] } },
{ "type": "Feature", "properties": { "POI_TYPE": "Primary", "POI_NAME": "Elias Park Primary", "POI_ADD": "11 Pasir Ris Street 52 S518866", "POSTCODE": "518866", "REMARK": null, "XI": 40419.981, "YI": 39670.611, "Tier" : "Tier 1" }, "geometry": { "type": "Point", "coordinates": [ 103.944898416723674, 1.375053662749389 ] } },
{ "type": "Feature", "properties": { "POI_TYPE": "Primary", "POI_NAME": "Eunos Primary C\/O Jaya Pri", "POI_ADD": "10 Chai Chee Lane S469021", "POSTCODE": "469021", "REMARK": null, "XI": 37681.663, "YI": 34728.081, "Tier": "Tier 2" }, "geometry": { "type": "Point", "coordinates": [ 103.92029140127886, 1.330356008108094 ] } },
{ "type": "Feature", "properties": { "POI_TYPE": "Primary", "POI_NAME": "Evergreen Primary", "POI_ADD": "31 Woodlands Circle S738908", "POSTCODE": "738908", "REMARK": null, "XI": 23623.145, "YI": 47275.895, "Tier": "Tier 2" }, "geometry": { "type": "Point", "coordinates": [ 103.793964869356458, 1.443834164777526 ] } },
{ "type": "Feature", "properties": { "POI_TYPE": "Primary", "POI_NAME": "Fairfield Methodist Primary", "POI_ADD": "100 Dover Road S139648", "POSTCODE": "139648", "REMARK": null, "XI": 22708.592, "YI": 31515.318, "Tier" : "Tier 1" }, "geometry": { "type": "Point", "coordinates": [ 103.785750685266194, 1.301300916555656 ] } },
{ "type": "Feature", "properties": { "POI_TYPE": "Primary", "POI_NAME": "Fengshan Primary", "POI_ADD": "307 Bedok Not\\Rth Road S469680", "POSTCODE": "469680", "REMARK": null, "XI": 38918.322, "YI": 34746.522, "Tier" : "Tier 1" }, "geometry": { "type": "Point", "coordinates": [ 103.931403486084875, 1.330522451791978 ] } },
{ "type": "Feature", "properties": { "POI_TYPE": "Primary", "POI_NAME": "First Toa Payoh Primary", "POI_ADD": "7 Lorong 8 Toa Payoh S319252", "POSTCODE": "319252", "REMARK": null, "XI": 30480.405, "YI": 35832.935, "Tier": "Tier 2" }, "geometry": { "type": "Point", "coordinates": [ 103.855584042790525, 1.340348844339089 ] } },
{ "type": "Feature", "properties": { "POI_TYPE": "Primary", "POI_NAME": "Fuchun Primary", "POI_ADD": "29 Woodlands Centre Road S738926", "POSTCODE": "738926", "REMARK": null, "XI": 21305.035, "YI": 46336.873, "Tier": "Tier 2" }, "geometry": { "type": "Point", "coordinates": [ 103.773134646575656, 1.435341352752692 ] } },
{ "type": "Feature", "properties": { "POI_TYPE": "Primary", "POI_NAME": "Fuhua Primary C\/O Yuqun Pri", "POI_ADD": "571 Jurong East Street 24 S609560", "POSTCODE": "609560", "REMARK": null, "XI": 18022.934, "YI": 36122.155, "Tier": "Tier 2" }, "geometry": { "type": "Point", "coordinates": [ 103.743646069547609, 1.342961988613575 ] } },
{ "type": "Feature", "properties": { "POI_TYPE": "Primary", "POI_NAME": "Gan Eng Seng Primary", "POI_ADD": "100 Redhill Close S158901", "POSTCODE": "158901", "REMARK": null, "XI": 26036.706, "YI": 29879.828, "Tier": "Tier 2" }, "geometry": { "type": "Point", "coordinates": [ 103.815655537500234, 1.286510737559314 ] } },
{ "type": "Feature", "properties": { "POI_TYPE": "Primary", "POI_NAME": "Geylang Methodist Primary", "POI_ADD": "4 Geylang East Central S389706", "POSTCODE": "389706", "REMARK": null, "XI": 33622.38, "YI": 33327.602, "Tier": "Tier 2" }, "geometry": { "type": "Point", "coordinates": [ 103.883816295025042, 1.317691294830348 ] } },
{ "type": "Feature", "properties": { "POI_TYPE": "Primary", "POI_NAME": "Ghim Moh Primary", "POI_ADD": "287 Ghim Moh Road S279623", "POSTCODE": "279623", "REMARK": null, "XI": 22723.596, "YI": 32707.544, "Tier": "Tier 3" }, "geometry": { "type": "Point", "coordinates": [ 103.78588521693068, 1.312082991373095 ] } },
{ "type": "Feature", "properties": { "POI_TYPE": "Primary", "POI_NAME": "Greenridge Primary", "POI_ADD": "11 Jelapang Road S677744", "POSTCODE": "677744", "REMARK": null, "XI": 20685.898, "YI": 40934.801, "Tier" : "Tier 1" }, "geometry": { "type": "Point", "coordinates": [ 103.767572889189495, 1.386486780848925 ] } },
{ "type": "Feature", "properties": { "POI_TYPE": "Primary", "POI_NAME": "Greenwood Primary", "POI_ADD": "11 Woodlands Drive 62 S737942", "POSTCODE": "737942", "REMARK": null, "XI": 24822.452, "YI": 46818.661, "Tier": "Tier 2" }, "geometry": { "type": "Point", "coordinates": [ 103.804741919833489, 1.43969936105029 ] } },
{ "type": "Feature", "properties": { "POI_TYPE": "Primary", "POI_NAME": "Griffths Primary", "POI_ADD": "3 Tampines Street 22 S529366", "POSTCODE": "529366", "REMARK": null, "XI": 41135.564, "YI": 36709.74, "Tier": "Tier 2" }, "geometry": { "type": "Point", "coordinates": [ 103.95132736683081, 1.348276365715791 ] } },
{ "type": "Feature", "properties": { "POI_TYPE": "Primary", "POI_NAME": "Guangyang Primary", "POI_ADD": "6 Bishan Street 12 S579806", "POSTCODE": "579806", "REMARK": null, "XI": 29782.959, "YI": 36445.217, "Tier": "Tier 2" }, "geometry": { "type": "Point", "coordinates": [ 103.849317063221591, 1.345886107432988 ] } },
{ "type": "Feature", "properties": { "POI_TYPE": "Primary", "POI_NAME": "Haig Girl'S School", "POI_ADD": "51 Koon Seng Road S427072", "POSTCODE": "427072", "REMARK": null, "XI": 35800.872, "YI": 32643.692,"Tier": "Tier 2" }, "geometry": { "type": "Point", "coordinates": [ 103.903391052325475, 1.311505931608386 ] } },
{ "type": "Feature", "properties": { "POI_TYPE": "Primary", "POI_NAME": "Henry Park Primary", "POI_ADD": "1 Holland Grove Road S278790", "POSTCODE": "278790", "REMARK": null, "XI": 22549.135, "YI": 33298.684, "Tier" : "Tier 1" }, "geometry": { "type": "Point", "coordinates": [ 103.78431745177889, 1.31742900958215 ] } },
{ "type": "Feature", "properties": { "POI_TYPE": "Primary", "POI_NAME": "Holy Innocents' Primary", "POI_ADD": "5 Lorong Low Koon S536451", "POSTCODE": "536451", "REMARK": null, "XI": 34731.728, "YI": 38768.742 , "Tier": "Tier 2"}, "geometry": { "type": "Point", "coordinates": [ 103.893785177802968, 1.366898907893211 ] } },
{ "type": "Feature", "properties": { "POI_TYPE": "Primary", "POI_NAME": "Hong Kah Primary", "POI_ADD": "1 Bukit Batok West Avenue 2 S659203", "POSTCODE": "659203", "REMARK": null, "XI": 18014.177, "YI": 38305.809, "Tier": "Tier 2" }, "geometry": { "type": "Point", "coordinates": [ 103.743566497718646, 1.362710151204568 ] } },
{ "type": "Feature", "properties": { "POI_TYPE": "Primary", "POI_NAME": "Hong Wen", "POI_ADD": "508 Victoria Street S198372", "POSTCODE": "198372", "REMARK": null, "XI": 31125.27, "YI": 32007.316, "Tier": "Tier 2" }, "geometry": { "type": "Point", "coordinates": [ 103.861378426172777, 1.305751264154356 ] } },
{ "type": "Feature", "properties": { "POI_TYPE": "Primary", "POI_NAME": "Hougang Primary", "POI_ADD": "1 Hougang Street 93 S534238", "POSTCODE": "534238", "REMARK": null, "XI": 33268.327, "YI": 39909.46, "Tier": "Tier 2" }, "geometry": { "type": "Point", "coordinates": [ 103.88063561584579, 1.377215347825134 ] } },
{ "type": "Feature", "properties": { "POI_TYPE": "Primary", "POI_NAME": "Huamin Primary", "POI_ADD": "21 Yishun Avenue 11 S768857", "POSTCODE": "768857", "REMARK": null, "XI": 29288.642, "YI": 45393.234, "Tier": "Tier 2" }, "geometry": { "type": "Point", "coordinates": [ 103.844875042107986, 1.426808806547664 ] } },
{ "type": "Feature", "properties": { "POI_TYPE": "Primary", "POI_NAME": "Jiemin Primary", "POI_ADD": "2 Yishun Street 71 S768515", "POSTCODE": "768515", "REMARK": null, "XI": 27643.984, "YI": 45537.841 , "Tier": "Tier 2"}, "geometry": { "type": "Point", "coordinates": [ 103.830096254141964, 1.428116480402587 ] } },
{ "type": "Feature", "properties": { "POI_TYPE": "Primary", "POI_NAME": "Jin Tai Primary", "POI_ADD": "145 West Coast Road S127367", "POSTCODE": "127367", "REMARK": null, "XI": 20504.964, "YI": 31395.855, "Tier": "Tier 3" }, "geometry": { "type": "Point", "coordinates": [ 103.765950110845679, 1.300219926347869 ] } },
{ "type": "Feature", "properties": { "POI_TYPE": "Primary", "POI_NAME": "Jing Shan C\/O Da Qiao Pri", "POI_ADD": "10 Ang Mo Kio Street 54 S569184", "POSTCODE": "569184", "REMARK": null, "XI": 30808.37, "YI": 39476.925, "Tier": "Tier 2" }, "geometry": { "type": "Point", "coordinates": [ 103.858531080154833, 1.373303808185413 ] } },
{ "type": "Feature", "properties": { "POI_TYPE": "Primary", "POI_NAME": "Junyuan Primary", "POI_ADD": "2 Tampines Street 91 S528906", "POSTCODE": "528906", "REMARK": null, "XI": 39832.919, "YI": 36665.413,"Tier": "Tier 2" }, "geometry": { "type": "Point", "coordinates": [ 103.939622266501701, 1.347875935688063 ] } },
{ "type": "Feature", "properties": { "POI_TYPE": "Primary", "POI_NAME": "Jurong Primary", "POI_ADD": "200 Jurong East Avenue 1 S609789", "POSTCODE": "609789", "REMARK": null, "XI": 16417.514, "YI": 36918.355, "Tier": "Tier 2" }, "geometry": { "type": "Point", "coordinates": [ 103.729220028811127, 1.350161833836277 ] } },
{ "type": "Feature", "properties": { "POI_TYPE": "Primary", "POI_NAME": "Jurong West Primary", "POI_ADD": "30 Jurong East Street 61 S648368", "POSTCODE": "648368", "REMARK": null, "XI": 13025.569, "YI": 35655.586, "Tier": "Tier 3" }, "geometry": { "type": "Point", "coordinates": [ 103.698741962720376, 1.338740080056689 ] } },
{ "type": "Feature", "properties": { "POI_TYPE": "Primary", "POI_NAME": "Juying Primary", "POI_ADD": "31 Jurong East Street 91 S649037", "POSTCODE": "649037", "REMARK": null, "XI": 11780.809, "YI": 35740.04, "Tier": "Tier 3" }, "geometry": { "type": "Point", "coordinates": [ 103.687557003421631, 1.339503115548596 ] } },
{ "type": "Feature", "properties": { "POI_TYPE": "Primary", "POI_NAME": "Keming Primary", "POI_ADD": "90 Bukit Batok East Avenue 6 S659762", "POSTCODE": "659762", "REMARK": null, "XI": 19412.449, "YI": 36290.55, "Tier" : "Tier 1" }, "geometry": { "type": "Point", "coordinates": [ 103.756131649091202, 1.344485422022197 ] } },
{ "type": "Feature", "properties": { "POI_TYPE": "Primary", "POI_NAME": "Kheng Cheng C\/O First Toa Payoh Pri.", "POI_ADD": "6 Toa Payoh Rise S318933", "POSTCODE": "318933", "REMARK": null, "XI": 29038.395, "YI": 35707.277, "Tier" : "Tier 1" }, "geometry": { "type": "Point", "coordinates": [ 103.842626721511564, 1.339212416522023 ] } },
{ "type": "Feature", "properties": { "POI_TYPE": "Primary", "POI_NAME": "Kong Hwa", "POI_ADD": "350 Guillemard Road S399772", "POSTCODE": "399772", "REMARK": null, "XI": 34066.786, "YI": 32575.774, "Tier" : "Tier 1" }, "geometry": { "type": "Point", "coordinates": [ 103.887809419437346, 1.310891971772185 ] } },
{ "type": "Feature", "properties": { "POI_TYPE": "Primary", "POI_NAME": "Kranji Primary", "POI_ADD": "11 Choa Chu Kang Street 54 S689189", "POSTCODE": "689189", "REMARK": null, "XI": 18494.074, "YI": 41799.577, "Tier": "Tier 2" }, "geometry": { "type": "Point", "coordinates": [ 103.74787731397187, 1.394306698976367 ] } },
{ "type": "Feature", "properties": { "POI_TYPE": "Primary", "POI_NAME": "Kuo Chuan Presbyterian Primary", "POI_ADD": "8 Bishan Street 13 S579793", "POSTCODE": "579793", "REMARK": null, "XI": 30467.149, "YI": 36860.83, "Tier": "Tier 2" }, "geometry": { "type": "Point", "coordinates": [ 103.855464938986174, 1.349644767626555 ] } },
{ "type": "Feature", "properties": { "POI_TYPE": "Primary", "POI_NAME": "Lakeside Primary School", "POI_ADD": "161Corporation Walk S618310", "POSTCODE": "618310", "REMARK": null, "XI": 15158.629, "YI": 35632.15, "Tier" : "Tier 1" }, "geometry": { "type": "Point", "coordinates": [ 103.717908785794549, 1.338529271731423 ] } },
{ "type": "Feature", "properties": { "POI_TYPE": "Primary", "POI_NAME": "Lianhua Primary", "POI_ADD": "2 Bukit Batok Street 52 S659243", "POSTCODE": "659243", "REMARK": null, "XI": 19185.288, "YI": 37297.895, "Tier": "Tier 3" }, "geometry": { "type": "Point", "coordinates": [ 103.75409009982171, 1.35359540184726 ] } },
{ "type": "Feature", "properties": { "POI_TYPE": "Primary", "POI_NAME": "Loyang Primary", "POI_ADD": "3 Pasir Ris Drive 6 S519419", "POSTCODE": "519419", "REMARK": null, "XI": 41731.401, "YI": 39296.328, "Tier": "Tier 2" }, "geometry": { "type": "Point", "coordinates": [ 103.956682335987807, 1.371668298708789 ] } },
{ "type": "Feature", "properties": { "POI_TYPE": "Primary", "POI_NAME": "Macpherson Primary", "POI_ADD": "2 Mattar Road S387724", "POSTCODE": "387724", "REMARK": null, "XI": 33358.37, "YI": 34013.122, "Tier" : "Tier 1" }, "geometry": { "type": "Point", "coordinates": [ 103.881444098646497, 1.323890926994122 ] } },
{ "type": "Feature", "properties": { "POI_TYPE": "Primary", "POI_NAME": "Maha Bodhi", "POI_ADD": "10 Ubi Avenue 1 S408931", "POSTCODE": "408931", "REMARK": null, "XI": 35596.263, "YI": 34518.038, "Tier": "Tier 2" }, "geometry": { "type": "Point", "coordinates": [ 103.901552867547252, 1.328456895714526 ] } },
{ "type": "Feature", "properties": { "POI_TYPE": "Primary", "POI_NAME": "Maris Stella High", "POI_ADD": "25Mount Vernon Road S368051", "POSTCODE": "368051", "REMARK": null, "XI": 32949.243, "YI": 35993.093, "Tier" : "Tier 1" }, "geometry": { "type": "Point", "coordinates": [ 103.877768050006338, 1.341797132586793 ] } },
{ "type": "Feature", "properties": { "POI_TYPE": "Primary", "POI_NAME": "Marsiling Primary", "POI_ADD": "31 Marsiling Centre Road S738927", "POSTCODE": "738927", "REMARK": null, "XI": 21367.121, "YI": 46179.308, "Tier": "Tier 3" }, "geometry": { "type": "Point", "coordinates": [ 103.77369259788783, 1.433916411950537 ] } },
{ "type": "Feature", "properties": { "POI_TYPE": "Primary", "POI_NAME": "Mayflower Primary", "POI_ADD": "200 Ang Mo Kio Avenue 5 S569878", "POSTCODE": "569878", "REMARK": null, "XI": 29104.068, "YI": 39851.029, "Tier" : "Tier 1" }, "geometry": { "type": "Point", "coordinates": [ 103.84321668188278, 1.376687059413422 ] } },
{ "type": "Feature", "properties": { "POI_TYPE": "Primary", "POI_NAME": "Marymount Convent", "POI_ADD": "20 Marymount Road S297754", "POSTCODE": "297754", "REMARK": null, "XI": 28697.589, "YI": 35799.548, "Tier": "Tier 2" }, "geometry": { "type": "Point", "coordinates": [ 103.839564371758527, 1.340046868244718 ] } },
{ "type": "Feature", "properties": { "POI_TYPE": "Primary", "POI_NAME": "Mee Toh", "POI_ADD": "375 Race Course Road S218644", "POSTCODE": "218644", "REMARK": null, "XI": 30643.032, "YI": 33071.699, "Tier": "Tier 2" }, "geometry": { "type": "Point", "coordinates": [ 103.857045303506382, 1.315377185481277 ] } },
{ "type": "Feature", "properties": { "POI_TYPE": "Primary", "POI_NAME": "Meridian Primary", "POI_ADD": "20 Pasir Ris Street 71 S518798", "POSTCODE": "518798", "REMARK": null, "XI": 39371.534, "YI": 39845.457, "Tier": "Tier 3" }, "geometry": { "type": "Point", "coordinates": [ 103.935477410138361, 1.376635253064598 ] } },
{ "type": "Feature", "properties": { "POI_TYPE": "Primary", "POI_NAME": "Methodist Girls' (Primary)", "POI_ADD": "11 Blackmore Drive S599986", "POSTCODE": "599986", "REMARK": null, "XI": 22510.092, "YI": 34895.112, "Tier": "Tier 3" }, "geometry": { "type": "Point", "coordinates": [ 103.78396623063918, 1.331866528612442 ] } },
{ "type": "Feature", "properties": { "POI_TYPE": "Primary", "POI_NAME": "Monfort Junior", "POI_ADD": "52 Hougang Avenue 8 S538786", "POSTCODE": "538786", "REMARK": null, "XI": 34220.383, "YI": 39550.066, "Tier": "Tier 2" }, "geometry": { "type": "Point", "coordinates": [ 103.889190491793087, 1.373965000301064 ] } },
{ "type": "Feature", "properties": { "POI_TYPE": "Primary", "POI_NAME": "Nan Chiau Primary", "POI_ADD": "50 Anchorvale Link S545080", "POSTCODE": "545080", "REMARK": null, "XI": 34354.368, "YI": 41617.822, "Tier": "Tier 2" }, "geometry": { "type": "Point", "coordinates": [ 103.890394736895757, 1.392665034335326 ] } },
{ "type": "Feature", "properties": { "POI_TYPE": "Primary", "POI_NAME": "Nan Hua Primary", "POI_ADD": "30 Jalan Lempeng S128806", "POSTCODE": "128806", "REMARK": null, "XI": 19982.596, "YI": 33524.064 , "Tier" : "Tier 1"}, "geometry": { "type": "Point", "coordinates": [ 103.761255696059933, 1.319466518194634 ] } },
{ "type": "Feature", "properties": { "POI_TYPE": "Primary", "POI_NAME": "Nanyang Primary", "POI_ADD": "52 King'S Road S268097", "POSTCODE": "268097", "REMARK": null, "XI": 25239.764, "YI": 33656.384, "Tier" : "Tier 1" }, "geometry": { "type": "Point", "coordinates": [ 103.808494088581995, 1.320664475726307 ] } },
{ "type": "Feature", "properties": { "POI_TYPE": "Primary", "POI_NAME": "Naval Base Primary", "POI_ADD": "7 Yishun Street Avenue 4 S769028", "POSTCODE": "769028", "REMARK": null, "XI": 28582.842, "YI": 44206.544, "Tier": "Tier 3" }, "geometry": { "type": "Point", "coordinates": [ 103.838532842353032, 1.416076772815622 ] } },
{ "type": "Feature", "properties": { "POI_TYPE": "Primary", "POI_NAME": "New Town Primary", "POI_ADD": "402 Commonwealth Drive S149599", "POSTCODE": "149599", "REMARK": null, "XI": 24098.033, "YI": 31741.461, "Tier": "Tier 3" }, "geometry": { "type": "Point", "coordinates": [ 103.798235407881506, 1.303346378456291 ] } },
{ "type": "Feature", "properties": { "POI_TYPE": "Primary", "POI_NAME": "Ngee Ann Primary", "POI_ADD": "344 Marine Terrace S449149", "POSTCODE": "449149", "REMARK": null, "XI": 37327.513, "YI": 31961.959, "Tier": "Tier 2" }, "geometry": { "type": "Point", "coordinates": [ 103.917108523916539, 1.305340262903921 ] } },
{ "type": "Feature", "properties": { "POI_TYPE": "Primary", "POI_NAME": "North Spring Primary", "POI_ADD": "1 Rivervale Street S545088", "POSTCODE": "545088", "REMARK": null, "XI": 35817.561, "YI": 41120.278, "Tier": "Tier 2" }, "geometry": { "type": "Point", "coordinates": [ 103.90354259404026, 1.388165176939585 ] } },
{ "type": "Feature", "properties": { "POI_TYPE": "Primary", "POI_NAME": "North View Primary", "POI_ADD": "210 Yishun Avenue 6 S768960", "POSTCODE": "768960", "REMARK": null, "XI": 29701.204, "YI": 45498.85, "Tier": "Tier 3" }, "geometry": { "type": "Point", "coordinates": [ 103.848582291890153, 1.427763970248094 ] } },
{ "type": "Feature", "properties": { "POI_TYPE": "Primary", "POI_NAME": "Northland Primary", "POI_ADD": "15 Yishun Avenue 4 S769026", "POSTCODE": "769026", "REMARK": null, "XI": 28845.839, "YI": 44778.335, "Tier": "Tier 2" }, "geometry": { "type": "Point", "coordinates": [ 103.84089607613663, 1.421247861105323 ] } },
{ "type": "Feature", "properties": { "POI_TYPE": "Primary", "POI_NAME": "Opera Estate Primary", "POI_ADD": "48 Fidelio Road S458436", "POSTCODE": "458436", "REMARK": null, "XI": 38148.468, "YI": 33489.722, "Tier": "Tier 3" }, "geometry": { "type": "Point", "coordinates": [ 103.924485586862389, 1.319156610295613 ] } },
{ "type": "Feature", "properties": { "POI_TYPE": "Primary", "POI_NAME": "Pandan Primary", "POI_ADD": "700 West Coast Road S608785", "POSTCODE": "608785", "REMARK": null, "XI": 17997.368, "YI": 33584.774, "Tier": "Tier 3" }, "geometry": { "type": "Point", "coordinates": [ 103.743417356785713, 1.320014830934981 ] } },
{ "type": "Feature", "properties": { "POI_TYPE": "Primary", "POI_NAME": "Park View Primary", "POI_ADD": "60 Pasir Ris Drive 1 S519524", "POSTCODE": "519524", "REMARK": null, "XI": 39829.992, "YI": 39960.894, "Tier" : "Tier 1" }, "geometry": { "type": "Point", "coordinates": [ 103.939597029991532, 1.377679076502431 ] } },
{ "type": "Feature", "properties": { "POI_TYPE": "Primary", "POI_NAME": "Pasir Ris Primary", "POI_ADD": "5 Pasir Ris Street 21 S518968", "POSTCODE": "518968", "REMARK": null, "XI": 42376.567, "YI": 39315.396 , "Tier" : "Tier 1" }, "geometry": { "type": "Point", "coordinates": [ 103.962479622731422, 1.371840482865859 ] } },
{ "type": "Feature", "properties": { "POI_TYPE": "Primary", "POI_NAME": "Paya Lebar Methodist Girls' Primary", "POI_ADD": "298 Lorong Ah Soo S536741", "POSTCODE": "536741", "REMARK": null, "XI": 33750.287, "YI": 36889.457, "Tier" : "Tier 1" }, "geometry": { "type": "Point", "coordinates": [ 103.884966021424063, 1.349903450048817 ] } },
{ "type": "Feature", "properties": { "POI_TYPE": "Primary", "POI_NAME": "Pei Chun Public", "POI_ADD": "16 Lorong 7 Toa Payoh S319320", "POSTCODE": "319320", "REMARK": null, "XI": 30497.729, "YI": 35552.333,"Tier" : "Tier 1" }, "geometry": { "type": "Point", "coordinates": [ 103.855739706522201, 1.337811177619782 ] } },
{ "type": "Feature", "properties": { "POI_TYPE": "Primary", "POI_NAME": "Pei Hwa Presbyterian Primary", "POI_ADD": "7 Pei Wah Avenue S597610", "POSTCODE": "597610", "REMARK": null, "XI": 21626.921, "YI": 35629.889, "Tier": "Tier 2" }, "geometry": { "type": "Point", "coordinates": [ 103.776030229514063, 1.338511352969279 ] } },
{ "type": "Feature", "properties": { "POI_TYPE": "Primary", "POI_NAME": "Pei Tong Primary", "POI_ADD": "15 Clementi Avenue 5 S129857", "POSTCODE": "129857", "REMARK": null, "XI": 20673.204, "YI": 33125.693, "Tier": "Tier 2" }, "geometry": { "type": "Point", "coordinates": [ 103.767461294245791, 1.315864015840321 ] } },
{ "type": "Feature", "properties": { "POI_TYPE": "Primary", "POI_NAME": "Peixin Primary", "POI_ADD": "500 Yishun Ring Road S768679", "POSTCODE": "768679", "REMARK": null, "XI": 28022.123, "YI": 46196.442, "Tier": "Tier 3" }, "geometry": { "type": "Point", "coordinates": [ 103.833494134783152, 1.434072664548224 ] } },
{ "type": "Feature", "properties": { "POI_TYPE": "Primary", "POI_NAME": "Peiying Primary", "POI_ADD": "651 Yishun Ring Road S768687", "POSTCODE": "768687", "REMARK": null, "XI": 27651.49, "YI": 44349.23, "Tier" : "Tier 1" }, "geometry": { "type": "Point", "coordinates": [ 103.83016380825174, 1.41736710648307 ] } },
{ "type": "Feature", "properties": { "POI_TYPE": "Primary", "POI_NAME": "Pioneer Primary", "POI_ADD": "23 Jurong West Street 81 S649076", "POSTCODE": "649076", "REMARK": null, "XI": 12627.961, "YI": 36747.103, "Tier": "Tier 2" }, "geometry": { "type": "Point", "coordinates": [ 103.695168585039809, 1.348611111948346 ] } },
{ "type": "Feature", "properties": { "POI_TYPE": "Primary", "POI_NAME": "Poi Ching", "POI_ADD": "1 Lorong 6 Toa Payoh S319376", "POSTCODE": "319376", "REMARK": null, "XI": 30322.978, "YI": 35569.32, "Tier": "Tier 2" }, "geometry": { "type": "Point", "coordinates": [ 103.854169465497591, 1.337964803377811 ] } },
{ "type": "Feature", "properties": { "POI_TYPE": "Primary", "POI_NAME": "Princess Elizabeth Primary", "POI_ADD": "30 Bukit Batok West Avenue 3 S659163", "POSTCODE": "659163", "REMARK": null, "XI": 17696.173, "YI": 36861.712 , "Tier" : "Tier 1"}, "geometry": { "type": "Point", "coordinates": [ 103.740709616714128, 1.349650136703021 ] } },
{ "type": "Feature", "properties": { "POI_TYPE": "Primary", "POI_NAME": "Punggol Primary", "POI_ADD": "61 Hougang Avenue 8 S538787", "POSTCODE": "538787", "REMARK": null, "XI": 34859.081, "YI": 39897.065, "Tier" : "Tier 1" }, "geometry": { "type": "Point", "coordinates": [ 103.894929711134111, 1.377103041935644 ] } },
{ "type": "Feature", "properties": { "POI_TYPE": "Primary", "POI_NAME": "Qiaonan Primary", "POI_ADD": "15 Tampines Street 11 S529454", "POSTCODE": "529454", "REMARK": null, "XI": 40859.764, "YI": 36498.411, "Tier": "Tier 3" }, "geometry": { "type": "Point", "coordinates": [ 103.94884905534056, 1.34636528226978 ] } },
{ "type": "Feature", "properties": { "POI_TYPE": "Primary", "POI_NAME": "Qifa Primary", "POI_ADD": "50 West Coast Avenue S128104", "POSTCODE": "128104", "REMARK": null, "XI": 19480.495, "YI": 32740.877, "Tier": "Tier 2" }, "geometry": { "type": "Point", "coordinates": [ 103.756744326627143, 1.312383485494168 ] } },
{ "type": "Feature", "properties": { "POI_TYPE": "Primary", "POI_NAME": "Qihua Primary", "POI_ADD": "5 Woodlands Street 81 S738525", "POSTCODE": "738525", "REMARK": null, "XI": 23002.378, "YI": 47088.946, "Tier": "Tier 2" }, "geometry": { "type": "Point", "coordinates": [ 103.788386709646275, 1.442143313196766 ] } },
{ "type": "Feature", "properties": { "POI_TYPE": "Primary", "POI_NAME": "Queenstown Primary", "POI_ADD": "310 Margaret Drive S149303", "POSTCODE": "149303", "REMARK": null, "XI": 25230.09, "YI": 31006.392, "Tier": "Tier 3" }, "geometry": { "type": "Point", "coordinates": [ 103.808407585862241, 1.296698872837512 ] } },
{ "type": "Feature", "properties": { "POI_TYPE": "Primary", "POI_NAME": "Raffles' Girls Primary School", "POI_ADD": "21 Hillcrest Road S289072", "POSTCODE": "289072", "REMARK": null, "XI": 24970.515, "YI": 34623.711 , "Tier" : "Tier 1" }, "geometry": { "type": "Point", "coordinates": [ 103.806074579181256, 1.329412596759002 ] } },
{ "type": "Feature", "properties": { "POI_TYPE": "Primary", "POI_NAME": "Red Swastika", "POI_ADD": "350 Bedok North Avenue 3 S469719", "POSTCODE": "469719", "REMARK": null, "XI": 39250.581, "YI": 35108.616 , "Tier": "Tier 2"}, "geometry": { "type": "Point", "coordinates": [ 103.934389128511356, 1.333797003113253 ] } },
{ "type": "Feature", "properties": { "POI_TYPE": "Primary", "POI_NAME": "River Valley Primary School", "POI_ADD": "341 River Valley Road S238372", "POSTCODE": "238372", "REMARK": null, "XI": 27955.24, "YI": 30823.041, "Tier" : "Tier 1" }, "geometry": { "type": "Point", "coordinates": [ 103.832894281788938, 1.295041024832261 ] } },
{ "type": "Feature", "properties": { "POI_TYPE": "Primary", "POI_NAME": "Rivervale Primary School", "POI_ADD": "80 Rivervale Drive S545092", "POSTCODE": "545092", "REMARK": null, "XI": 35876.438, "YI": 41689.711, "Tier": "Tier 2" }, "geometry": { "type": "Point", "coordinates": [ 103.904071760409636, 1.393314914533455 ] } },
{ "type": "Feature", "properties": { "POI_TYPE": "Primary", "POI_NAME": "Rosyth Primary School", "POI_ADD": "21 Serangoon North Avenue 4 S555855", "POSTCODE": "555855", "REMARK": null, "XI": 32511.467, "YI": 39470.692 , "Tier" : "Tier 1" }, "geometry": { "type": "Point", "coordinates": [ 103.873834636489548, 1.373247354206815 ] } },
{ "type": "Feature", "properties": { "POI_TYPE": "Primary", "POI_NAME": "Rulang Primary School", "POI_ADD": "6 Jurong West Street 52 S649295", "POSTCODE": "649295", "REMARK": null, "XI": 15144.006, "YI": 36683.602, "Tier" : "Tier 1" }, "geometry": { "type": "Point", "coordinates": [ 103.717776866712043, 1.348038202362364 ] } },
{ "type": "Feature", "properties": { "POI_TYPE": "Primary", "POI_NAME": "Sembawang Primary School", "POI_ADD": "10 Sembawang Drive S757715", "POSTCODE": "757715", "REMARK": null, "XI": 26588.445, "YI": 47364.289, "Tier": "Tier 2" }, "geometry": { "type": "Point", "coordinates": [ 103.820611020947496, 1.44463410756707 ] } },
{ "type": "Feature", "properties": { "POI_TYPE": "Primary", "POI_NAME": "Sengkang Primary School", "POI_ADD": "21 Compassvale Walk S545166", "POSTCODE": "545166", "REMARK": null, "XI": 35419.76, "YI": 41306.6, "Tier": "Tier 3" }, "geometry": { "type": "Point", "coordinates": [ 103.899968075696236, 1.389850280969344 ] } },
{ "type": "Feature", "properties": { "POI_TYPE": "Primary", "POI_NAME": "Shuqun Primary School", "POI_ADD": "8 Jurong West Street 51 S649332", "POSTCODE": "649332", "REMARK": null, "XI": 15524.816, "YI": 36661.03, "Tier": "Tier 2" }, "geometry": { "type": "Point", "coordinates": [ 103.721198694755117, 1.347834258436723 ] } },
{ "type": "Feature", "properties": { "POI_TYPE": "Primary", "POI_NAME": "Si Ling Primary School", "POI_ADD": "61 Woodlands Avenue 1 S739067", "POSTCODE": "739067", "REMARK": null, "XI": 22707.587, "YI": 46036.651, "Tier": "Tier 2" }, "geometry": { "type": "Point", "coordinates": [ 103.785738000457073, 1.432626661796353 ] } },
{ "type": "Feature", "properties": { "POI_TYPE": "Primary", "POI_NAME": "Singapore Chinese Girls' Primary", "POI_ADD": "190 Dunearn Road S309437", "POSTCODE": "309437", "REMARK": null, "XI": 27465.727, "YI": 33607.172 , "Tier" : "Tier 1"}, "geometry": { "type": "Point", "coordinates": [ 103.828495548760486, 1.32021969899468 ] } },
{ "type": "Feature", "properties": { "POI_TYPE": "Primary", "POI_NAME": "South View Primary School", "POI_ADD": "6 Choa Chu Kang Central S689762", "POSTCODE": "689762", "REMARK": null, "XI": 18356.272, "YI": 40451.6 , "Tier" : "Tier 1"}, "geometry": { "type": "Point", "coordinates": [ 103.746639597414102, 1.382116035625343 ] } },
{ "type": "Feature", "properties": { "POI_TYPE": "Primary", "POI_NAME": "Stamford Primary School", "POI_ADD": "1 Victoria Lane S198423", "POSTCODE": "198423", "REMARK": null, "XI": 30723.576, "YI": 31787.561, "Tier": "Tier 3" }, "geometry": { "type": "Point", "coordinates": [ 103.85776901052877, 1.303763885585109 ] } },
{ "type": "Feature", "properties": { "POI_TYPE": "Primary", "POI_NAME": "St. Andrew'S Junior", "POI_ADD": "2 Francis Thomas Drive S359334", "POSTCODE": "359334", "REMARK": null, "XI": 31623.619, "YI": 34710.762 , "Tier": "Tier 2"}, "geometry": { "type": "Point", "coordinates": [ 103.8658564546501, 1.330200270752245 ] } },
{ "type": "Feature", "properties": { "POI_TYPE": "Primary", "POI_NAME": "St. Anthony'S Canossian Primary", "POI_ADD": "1602 Bedok North Avenue 4 S469701", "POSTCODE": "469701", "REMARK": null, "XI": 39993.372, "YI": 35207.91, "Tier": "Tier 2" }, "geometry": { "type": "Point", "coordinates": [ 103.941063566383264, 1.334694751133195 ] } },
{ "type": "Feature", "properties": { "POI_TYPE": "Primary", "POI_NAME": "St. Anthony'S Primary School", "POI_ADD": "1 Bukit Batok Street 34 S659321", "POSTCODE": "659321", "REMARK": null, "XI": 18660.655, "YI": 38468.715, "Tier": "Tier 2" }, "geometry": { "type": "Point", "coordinates": [ 103.749375480700991, 1.364183672017837 ] } },
{ "type": "Feature", "properties": { "POI_TYPE": "Primary", "POI_NAME": "St. Gabriel'S Primary School", "POI_ADD": "220 Lorong Chuan S556742", "POSTCODE": "556742", "REMARK": null, "XI": 31232.875, "YI": 36831.225, "Tier": "Tier 3" }, "geometry": { "type": "Point", "coordinates": [ 103.862345472114598, 1.349377013560559 ] } },
{ "type": "Feature", "properties": { "POI_TYPE": "Primary", "POI_NAME": "St. Hilda'S Primary School", "POI_ADD": "2 Tampines Avenue 3 S529706", "POSTCODE": "529706", "REMARK": null, "XI": 39533.177, "YI": 36832.406, "Tier" : "Tier 1" }, "geometry": { "type": "Point", "coordinates": [ 103.936928947938696, 1.349386255251102 ] } },
{ "type": "Feature", "properties": { "POI_TYPE": "Primary", "POI_NAME": "St. Joseph'S Institution Junior", "POI_ADD": "3 Essex Road S309331", "POSTCODE": "309331", "REMARK": null, "XI": 29362.837, "YI": 33391.766, "Tier": "Tier 2" }, "geometry": { "type": "Point", "coordinates": [ 103.845542089243835, 1.318271752291572 ] } },
{ "type": "Feature", "properties": { "POI_TYPE": "Primary", "POI_NAME": "St. Margaret'S Primary School", "POI_ADD": "99 Wilkie Road S228091", "POSTCODE": "228091", "REMARK": null, "XI": 29435.179, "YI": 31791.18,"Tier": "Tier 2" }, "geometry": { "type": "Point", "coordinates": [ 103.846192158907797, 1.303796609839986 ] } },
{ "type": "Feature", "properties": { "POI_TYPE": "Primary", "POI_NAME": "St. Stephen'S School", "POI_ADD": "20 Siglap View S455789", "POSTCODE": "455789", "REMARK": null, "XI": 37292.998, "YI": 33454.119, "Tier": "Tier 2" }, "geometry": { "type": "Point", "coordinates": [ 103.916798732105306, 1.318834839610621 ] } },
{ "type": "Feature", "properties": { "POI_TYPE": "Primary", "POI_NAME": "Tampines North Primary", "POI_ADD": "30 Tampines Avenue 9 S529565", "POSTCODE": "529565", "REMARK": null, "XI": 40806.514, "YI": 38038.134, "Tier": "Tier 2" }, "geometry": { "type": "Point", "coordinates": [ 103.948371114824212, 1.3602899975171 ] } },
{ "type": "Feature", "properties": { "POI_TYPE": "Primary", "POI_NAME": "Tampines Primary School", "POI_ADD": "250 Tampines Street 12 S529426", "POSTCODE": "529426", "REMARK": null, "XI": 40377.704, "YI": 36945.173, "Tier" : "Tier 1" }, "geometry": { "type": "Point", "coordinates": [ 103.944517596743935, 1.350405803862522 ] } },
{ "type": "Feature", "properties": { "POI_TYPE": "Primary", "POI_NAME": "Tanjong Katong Primary", "POI_ADD": "10 Seraya Road S437259", "POSTCODE": "437259", "REMARK": null, "XI": 35405.701, "YI": 31984.621, "Tier": "Tier 2" }, "geometry": { "type": "Point", "coordinates": [ 103.899840133955493, 1.305545593452322 ] } },
{ "type": "Feature", "properties": { "POI_TYPE": "Primary", "POI_NAME": "Tao Nan", "POI_ADD": "49 Marine Cresent S449761", "POSTCODE": "449761", "REMARK": null, "XI": 36699.399, "YI": 31882.636, "Tier": "Tier 2" }, "geometry": { "type": "Point", "coordinates": [ 103.911464604668154, 1.304623031973145 ] } },
{ "type": "Feature", "properties": { "POI_TYPE": "Primary", "POI_NAME": "Teck Ghee Primary School", "POI_ADD": "1 Ang Mo Kio Street 10 S569729", "POSTCODE": "569729", "REMARK": null, "XI": 30386.81, "YI": 38049.01, "Tier" : "Tier 1" }, "geometry": { "type": "Point", "coordinates": [ 103.854743049749104, 1.360390252061654 ] } },
{ "type": "Feature", "properties": { "POI_TYPE": "Primary", "POI_NAME": "Teck Whye Primary School", "POI_ADD": "11 Teck Whye Walk S688261", "POSTCODE": "688261", "REMARK": null, "XI": 19162.675, "YI": 40642.535, "Tier" : "Tier 1" }, "geometry": { "type": "Point", "coordinates": [ 103.753885665436584, 1.383843097327949 ] } },
{ "type": "Feature", "properties": { "POI_TYPE": "Primary", "POI_NAME": "Telok Kurau Primary School", "POI_ADD": "50 Bedok Reservoir Road S479238", "POSTCODE": "479238", "REMARK": null, "XI": 39247.605, "YI": 35500.928, "Tier" : "Tier 1" }, "geometry": { "type": "Point", "coordinates": [ 103.934362504111462, 1.337344933306241 ] } },
{ "type": "Feature", "properties": { "POI_TYPE": "Primary", "POI_NAME": "Temasek Primary School", "POI_ADD": "501 Bedok South Avenue 3 S469300", "POSTCODE": "469300", "REMARK": null, "XI": 40568.337, "YI": 33257.671, "Tier" : "Tier 1" }, "geometry": { "type": "Point", "coordinates": [ 103.946229300919114, 1.317057300284441 ] } },
{ "type": "Feature", "properties": { "POI_TYPE": "Primary", "POI_NAME": "Townsville Primary School", "POI_ADD": "3 Ang Mo Kio Avenue 10 S569730", "POSTCODE": "569730", "REMARK": null, "XI": 30214.755, "YI": 38014.761, "Tier": "Tier 2" }, "geometry": { "type": "Point", "coordinates": [ 103.853197019529588, 1.360080516737304 ] } },
{ "type": "Feature", "properties": { "POI_TYPE": "Primary", "POI_NAME": "Unity Primary School", "POI_ADD": "21 Choa Chu Kang Cresent S688288", "POSTCODE": "688288", "REMARK": null, "XI": 18945.671, "YI": 41425.261, "Tier": "Tier 3" }, "geometry": { "type": "Point", "coordinates": [ 103.751935418882155, 1.390921701352766 ] } },
{ "type": "Feature", "properties": { "POI_TYPE": "Primary", "POI_NAME": "Wellington Primary School", "POI_ADD": "10 Wellington Circle S757702", "POSTCODE": "757702", "REMARK": null, "XI": 26764.416, "YI": 48252.071, "Tier" : "Tier 1" }, "geometry": { "type": "Point", "coordinates": [ 103.822192187103525, 1.452662911597739 ] } },
{ "type": "Feature", "properties": { "POI_TYPE": "Primary", "POI_NAME": "West Grove Primary School", "POI_ADD": "1 Jurong West Street 72 S649223", "POSTCODE": "649223", "REMARK": null, "XI": 13114.991, "YI": 36318.382, "Tier": "Tier 2" }, "geometry": { "type": "Point", "coordinates": [ 103.699545098997831, 1.344734204714061 ] } },
{ "type": "Feature", "properties": { "POI_TYPE": "Primary", "POI_NAME": "West View Primary School", "POI_ADD": "31 Senja Road S677742", "POSTCODE": "677742", "REMARK": null, "XI": 19859.643, "YI": 40698.404, "Tier": "Tier 2" }, "geometry": { "type": "Point", "coordinates": [ 103.760148433911894, 1.384348611229457 ] } },
{ "type": "Feature", "properties": { "POI_TYPE": "Primary", "POI_NAME": "White Sands Primary School", "POI_ADD": "2 Pasir Ris Street 11 S519075", "POSTCODE": "519075", "REMARK": null, "XI": 42215.876, "YI": 38708.987, "Tier": "Tier 2" }, "geometry": { "type": "Point", "coordinates": [ 103.961035453328861, 1.366356408737028 ] } },
{ "type": "Feature", "properties": { "POI_TYPE": "Primary", "POI_NAME": "Woodgrove Primary School", "POI_ADD": "2 Woodlands Drive 14 S738079", "POSTCODE": "738079", "REMARK": null, "XI": 23189.943, "YI": 45986.703, "Tier": "Tier 3" }, "geometry": { "type": "Point", "coordinates": [ 103.790072438881893, 1.432175074065488 ] } },
{ "type": "Feature", "properties": { "POI_TYPE": "Primary", "POI_NAME": "Woodlands Ring Primary School", "POI_ADD": "11 Woodlands Ring Road S738240", "POSTCODE": "738240", "REMARK": null, "XI": 24020.946, "YI": 46326.354 , "Tier": "Tier 3"}, "geometry": { "type": "Point", "coordinates": [ 103.797539713554968, 1.435246949327704 ] } },
{ "type": "Feature", "properties": { "POI_TYPE": "Primary", "POI_NAME": "Xinghua Primary School", "POI_ADD": "45 Hougang Avenue 1 S649036", "POSTCODE": "649036", "REMARK": null, "XI": 11824.051, "YI": 36058.034, "Tier": "Tier 2" }, "geometry": { "type": "Point", "coordinates": [ 103.687945365962435, 1.342378956607619 ] } },
{ "type": "Feature", "properties": { "POI_TYPE": "Primary", "POI_NAME": "Xinmin Primary School", "POI_ADD": "9 Hougang Avenue 8 S538784", "POSTCODE": "538784", "REMARK": null, "XI": 33519.271, "YI": 39271.777 , "Tier": "Tier 2" }, "geometry": { "type": "Point", "coordinates": [ 103.882890460957839, 1.371448340429714 ] } },
{ "type": "Feature", "properties": { "POI_TYPE": "Primary", "POI_NAME": "Xishann Primary School", "POI_ADD": "8 Yishun Street 21 S768611", "POSTCODE": "768611", "REMARK": null, "XI": 28388.53, "YI": 46144.437, "Tier": "Tier 2" }, "geometry": { "type": "Point", "coordinates": [ 103.836786654617526, 1.433602375729237 ] } },
{ "type": "Feature", "properties": { "POI_TYPE": "Primary", "POI_NAME": "Yangzheng Primary School", "POI_ADD": "15 Serangoon Avenue 3 S556108", "POSTCODE": "556108", "REMARK": null, "XI": 31926.669, "YI": 36754.904, "Tier": "Tier 2" }, "geometry": { "type": "Point", "coordinates": [ 103.868579646536247, 1.348686761021692 ] } },
{ "type": "Feature", "properties": { "POI_TYPE": "Primary", "POI_NAME": "Yew Tee Primary School", "POI_ADD": "10 Choa Chu Kang Street 64 S689100", "POSTCODE": "689100", "REMARK": null, "XI": 18764.348, "YI": 42126.692 , "Tier": "Tier 3"}, "geometry": { "type": "Point", "coordinates": [ 103.750305813972687, 1.397265114550848 ] } },
{ "type": "Feature", "properties": { "POI_TYPE": "Primary", "POI_NAME": "Yio Chu Kang Primary School", "POI_ADD": "1 Hougang Street 51 S538720", "POSTCODE": "538720", "REMARK": null, "XI": 33835.549, "YI": 40027.92, "Tier": "Tier 2" }, "geometry": { "type": "Point", "coordinates": [ 103.885732538228424, 1.378286593251175 ] } },
{ "type": "Feature", "properties": { "POI_TYPE": "Primary", "POI_NAME": "Yishun Primary School", "POI_ADD": "551 Yishun Ring Road S768681", "POSTCODE": "768681", "REMARK": null, "XI": 27664.816, "YI": 46345.337, "Tier": "Tier 2" }, "geometry": { "type": "Point", "coordinates": [ 103.830283377163127, 1.435419187962117 ] } },
{ "type": "Feature", "properties": { "POI_TYPE": "Primary", "POI_NAME": "Yu Neng Primary School", "POI_ADD": "56 Bedok North Street 3 S469623", "POSTCODE": "469623", "REMARK": null, "XI": 39049.741, "YI": 35132.685, "Tier": "Tier 1" }, "geometry": { "type": "Point", "coordinates": [ 103.932584472165701, 1.334014733938689 ] } },
{ "type": "Feature", "properties": { "POI_TYPE": "Primary", "POI_NAME": "Yuhua Primary School", "POI_ADD": "158 Jurong East Street 24 S609558", "POSTCODE": "609558", "REMARK": null, "XI": 17693.01, "YI": 36076.709, "Tier": "Tier 2" }, "geometry": { "type": "Point", "coordinates": [ 103.740681520007769, 1.342550856375373 ] } },
{ "type": "Feature", "properties": { "POI_TYPE": "Primary", "POI_NAME": "Yumin Primary School", "POI_ADD": "3 Tampines Street 21 S529393", "POSTCODE": "529393", "REMARK": null, "XI": 41115.427, "YI": 37088.821, "Tier": "Tier 2" }, "geometry": { "type": "Point", "coordinates": [ 103.951146560666359, 1.351704643948997 ] } },
{ "type": "Feature", "properties": { "POI_TYPE": "Primary", "POI_NAME": "Zhenghua Primary School", "POI_ADD": "9 Fajar Road S679002", "POSTCODE": "679002", "REMARK": null, "XI": 20857.079, "YI": 40197.976, "Tier": "Tier 2" }, "geometry": { "type": "Point", "coordinates": [ 103.769111316530584, 1.379823257698137 ] } },
{ "type": "Feature", "properties": { "POI_TYPE": "Primary", "POI_NAME": "Zhonghua Primary School", "POI_ADD": "12 Serangoon Avenue 4 S556095", "POSTCODE": "556095", "REMARK": null, "XI": 32110.427, "YI": 38024.88, "Tier": "Tier 2" }, "geometry": { "type": "Point", "coordinates": [ 103.870230909280622, 1.360171967547103 ] } },
{ "type": "Feature", "properties": { "POI_TYPE": "Secondary", "POI_NAME": "Admiralty Secondary School", "POI_ADD": "31 Woodlands Crescent", "POSTCODE": "737916", "REMARK": null, "XI": 24582.749, "YI": 47433.114 }, "geometry": { "type": "Point", "coordinates": [ 103.80258783211157, 1.445256205580919 ] } },
{ "type": "Feature", "properties": { "POI_TYPE": "Secondary", "POI_NAME": "Ahmad Ibrahim Secondary School", "POI_ADD": "751 Yishun Avenue 7", "POSTCODE": "768928", "REMARK": null, "XI": 27609.563, "YI": 46432.605, "Tier": "Tier 2" }, "geometry": { "type": "Point", "coordinates": [ 103.829786867984154, 1.436208403566341 ] } },
{ "type": "Feature", "properties": { "POI_TYPE": "Secondary", "POI_NAME": "Anderson Secondary School", "POI_ADD": "10 Ang Mo Kio Street 53", "POSTCODE": "569206", "REMARK": null, "XI": 29971.832, "YI": 39703.611, "Tier": "Tier 1"  }, "geometry": { "type": "Point", "coordinates": [ 103.851014180279051, 1.37535388225466 ] } },
{ "type": "Feature", "properties": { "POI_TYPE": "Secondary", "POI_NAME": "Ang Mo Kio Secondary School", "POI_ADD": "6 Ang Mo Kio Street 22", "POSTCODE": "569362", "REMARK": null, "XI": 29091.162, "YI": 38844.78, "Tier": "Tier 2" }, "geometry": { "type": "Point", "coordinates": [ 103.84310074940646, 1.367586896803282 ] } },
{ "type": "Feature", "properties": { "POI_TYPE": "Secondary", "POI_NAME": "Balestier Hill Secondary School", "POI_ADD": "11 Novena Rise", "POSTCODE": "307516", "REMARK": null, "XI": 29095.395, "YI": 34077.753, "Tier": "Tier 3" }, "geometry": { "type": "Point", "coordinates": [ 103.843138959102319, 1.324475571682962 ] } },
{ "type": "Feature", "properties": { "POI_TYPE": "Secondary", "POI_NAME": "Bartley Secondary School", "POI_ADD": "10 Jalan Bunga Rampai Road", "POSTCODE": "538403", "REMARK": null, "XI": 33492.712, "YI": 35815.331, "Tier": "Tier 3" }, "geometry": { "type": "Point", "coordinates": [ 103.882651429037068, 1.340189460688548 ] } },
{ "type": "Feature", "properties": { "POI_TYPE": "Secondary", "POI_NAME": "Beatty Secondary School", "POI_ADD": "1 Toa Payoh North", "POSTCODE": "318990", "REMARK": null, "XI": 30032.143, "YI": 35988.594, "Tier": "Tier 2" }, "geometry": { "type": "Point", "coordinates": [ 103.851556138615535, 1.341756570923709 ] } },
{ "type": "Feature", "properties": { "POI_TYPE": "Secondary", "POI_NAME": "Bedok Green Secondary School", "POI_ADD": "360 Bedok North Ave 3", "POSTCODE": "469722", "REMARK": null, "XI": 39389.114, "YI": 35121.486, "Tier": "Tier 3" }, "geometry": { "type": "Point", "coordinates": [ 103.935633931370759, 1.333913353041503 ] } },
{ "type": "Feature", "properties": { "POI_TYPE": "Secondary", "POI_NAME": "Bedok North Secondary School", "POI_ADD": "20 Jalan Damai", "POSTCODE": "419612", "REMARK": null, "XI": 36484.461, "YI": 35132.641, "Tier": "Tier 3" }, "geometry": { "type": "Point", "coordinates": [ 103.909533948617295, 1.334014977589942 ] } },
{ "type": "Feature", "properties": { "POI_TYPE": "Secondary", "POI_NAME": "Bedok South Secondary School", "POI_ADD": "1 Jalan Langgar Bedok", "POSTCODE": "468585", "REMARK": null, "XI": 41080.136, "YI": 34284.693, "Tier": "Tier 2" }, "geometry": { "type": "Point", "coordinates": [ 103.950828442985284, 1.326345139100353 ] } },
{ "type": "Feature", "properties": { "POI_TYPE": "Secondary", "POI_NAME": "Bedok Town Secondary School", "POI_ADD": "232 Bedok North Street 3", "POSTCODE": "469626", "REMARK": null, "XI": 38011.302, "YI": 34918.167, "Tier": "Tier 3" }, "geometry": { "type": "Point", "coordinates": [ 103.923253442512816, 1.332074995279772 ] } },
{ "type": "Feature", "properties": { "POI_TYPE": "Secondary", "POI_NAME": "Bedok View Secondary School", "POI_ADD": "6 Bedok South Avenue 3", "POSTCODE": "469293", "REMARK": null, "XI": 40250.94, "YI": 34047.728, "Tier": "Tier 2" }, "geometry": { "type": "Point", "coordinates": [ 103.94337758287098, 1.324202397881351 ] } },
{ "type": "Feature", "properties": { "POI_TYPE": "Secondary", "POI_NAME": "Bendemeer Secondary School", "POI_ADD": "1 St Wilfred Road", "POSTCODE": "327919", "REMARK": null, "XI": 31080.413, "YI": 34094.255, "Tier": "Tier 3" }, "geometry": { "type": "Point", "coordinates": [ 103.86097542456055, 1.324624816871438 ] } },
{ "type": "Feature", "properties": { "POI_TYPE": "Secondary", "POI_NAME": "Bishan Park Secondary School", "POI_ADD": "2 Sin Ming Walk", "POSTCODE": "575565", "REMARK": null, "XI": 27889.534, "YI": 38595.356, "Tier": "Tier 3" }, "geometry": { "type": "Point", "coordinates": [ 103.832303298872645, 1.365331124597547 ] } },
{ "type": "Feature", "properties": { "POI_TYPE": "Secondary", "POI_NAME": "Boon Lay Secondary School", "POI_ADD": "11 Jurong West Street 65", "POSTCODE": "648354", "REMARK": null, "XI": 13324.647, "YI": 36170.158, "Tier": "Tier 3" }, "geometry": { "type": "Point", "coordinates": [ 103.701429069953022, 1.343393841818107 ] } },
{ "type": "Feature", "properties": { "POI_TYPE": "Secondary", "POI_NAME": "Bowen Secondary School", "POI_ADD": "2 Lorong Napiri", "POSTCODE": "547529", "REMARK": null, "XI": 32853.141, "YI": 39265.575, "Tier": "Tier 2" }, "geometry": { "type": "Point", "coordinates": [ 103.876904805724166, 1.371392319411217 ] } },
{ "type": "Feature", "properties": { "POI_TYPE": "Secondary", "POI_NAME": "Bukit Batok Secondary School", "POI_ADD": "50 Bukit Batok West Avenue 8", "POSTCODE": "658962", "REMARK": null, "XI": 17697.688, "YI": 36711.202, "Tier": "Tier 2" }, "geometry": { "type": "Point", "coordinates": [ 103.740723292344398, 1.34828898016834 ] } },
{ "type": "Feature", "properties": { "POI_TYPE": "Secondary", "POI_NAME": "Bukit Merah Secondary School", "POI_ADD": "10 Lengkok Bahru", "POSTCODE": "159050", "REMARK": null, "XI": 25765.434, "YI": 29783.055, "Tier": "Tier 3" }, "geometry": { "type": "Point", "coordinates": [ 103.81321806138962, 1.285635519087697 ] } },
{ "type": "Feature", "properties": { "POI_TYPE": "Secondary", "POI_NAME": "Bukit Panjang Govt. High School", "POI_ADD": "38 Teck Whye Crescent", "POSTCODE": "688945", "REMARK": null, "XI": 19534.318, "YI": 40374.835, "Tier": "Tier 1"  }, "geometry": { "type": "Point", "coordinates": [ 103.757225257774209, 1.381422254297725 ] } },
{ "type": "Feature", "properties": { "POI_TYPE": "Secondary", "POI_NAME": "Bukit View Secondary School", "POI_ADD": "16 Bukit Batok Street 21", "POSTCODE": "659633", "REMARK": null, "XI": 19094.574, "YI": 36467.216, "Tier": "Tier 3" }, "geometry": { "type": "Point", "coordinates": [ 103.75327528174158, 1.346083009420866 ] } },
{ "type": "Feature", "properties": { "POI_TYPE": "Secondary", "POI_NAME": "Canberra Secondary School", "POI_ADD": "51 Sembawang Drive", "POSTCODE": "757699", "REMARK": null, "XI": 25971.481, "YI": 48349.927, "Tier": "Tier 3" }, "geometry": { "type": "Point", "coordinates": [ 103.815066836934022, 1.453547776988005 ] } },
{ "type": "Feature", "properties": { "POI_TYPE": "Secondary", "POI_NAME": "Cedar Girls' Secondary School", "POI_ADD": "1 Cedar Avenue", "POSTCODE": "349692", "REMARK": null, "XI": 32570.297, "YI": 35327.659, "Tier": "Tier 1"  }, "geometry": { "type": "Point", "coordinates": [ 103.874362938430025, 1.335779212452282 ] } },
{ "type": "Feature", "properties": { "POI_TYPE": "Secondary", "POI_NAME": "Chai Chee Secondary School", "POI_ADD": "5 Sennett Road", "POSTCODE": "466781", "REMARK": null, "XI": 39730.183, "YI": 33029.407, "Tier": "Tier 3" }, "geometry": { "type": "Point", "coordinates": [ 103.938697983464905, 1.31499323432241 ] } },
{ "type": "Feature", "properties": { "POI_TYPE": "Secondary", "POI_NAME": "Changkat Changi Secondary School", "POI_ADD": "23 Simei St 3", "POSTCODE": "529894", "REMARK": null, "XI": 41223.073, "YI": 35738.105, "Tier": "Tier 3" }, "geometry": { "type": "Point", "coordinates": [ 103.952113336125166, 1.339489219393183 ] } },
{ "type": "Feature", "properties": { "POI_TYPE": "Secondary", "POI_NAME": "Chestnut Drive Secondary School", "POI_ADD": "58 Chestnut Drive", "POSTCODE": "679301", "REMARK": null, "XI": 20977.763, "YI": 39086.612, "Tier": "Tier 3" }, "geometry": { "type": "Point", "coordinates": [ 103.770196098631345, 1.369772521346244 ] } },
{ "type": "Feature", "properties": { "POI_TYPE": "Secondary", "POI_NAME": "Chong Boon Secondary School", "POI_ADD": "2 Ang Mo Kio Street 44", "POSTCODE": "569250", "REMARK": null, "XI": 30726.348, "YI": 38571.508, "Tier": "Tier 3" }, "geometry": { "type": "Point", "coordinates": [ 103.857794036977822, 1.365115536515889 ] } },
{ "type": "Feature", "properties": { "POI_TYPE": "Secondary", "POI_NAME": "Chua Chu Kang Secondary School", "POI_ADD": "3 Teck Whye Crescent", "POSTCODE": "688845", "REMARK": null, "XI": 18865.653, "YI": 40589.954, "Tier": "Tier 2" }, "geometry": { "type": "Point", "coordinates": [ 103.751216716898739, 1.38336746030968 ] } },
{ "type": "Feature", "properties": { "POI_TYPE": "Secondary", "POI_NAME": "Clementi Town Secondary School", "POI_ADD": "121 Queensway", "POSTCODE": "149059", "REMARK": null, "XI": 24313.497, "YI": 31703.338, "Tier": "Tier 2"  }, "geometry": { "type": "Point", "coordinates": [ 103.800171459823133, 1.303001649016063 ] } },
{ "type": "Feature", "properties": { "POI_TYPE": "Secondary", "POI_NAME": "Clementi Woods Secondary School", "POI_ADD": "170 West Coast Road", "POSTCODE": "127443", "REMARK": null, "XI": 20308.189, "YI": 32004.541, "Tier": "Tier 3" }, "geometry": { "type": "Point", "coordinates": [ 103.764181804895543, 1.305724603053904 ] } },
{ "type": "Feature", "properties": { "POI_TYPE": "Secondary", "POI_NAME": "Commonwealth Secondary School", "POI_ADD": "698 West Coast Road", "POSTCODE": "608784", "REMARK": null, "XI": 18168.8, "YI": 33474.281, "Tier": "Tier 1"  }, "geometry": { "type": "Point", "coordinates": [ 103.744957806703042, 1.319015640269585 ] } },
{ "type": "Feature", "properties": { "POI_TYPE": "Secondary", "POI_NAME": "Compassvale Secondary School", "POI_ADD": "51 Compassvale Crescent", "POSTCODE": "545083", "REMARK": null, "XI": 35369.681, "YI": 42058.106, "Tier": "Tier 2" }, "geometry": { "type": "Point", "coordinates": [ 103.899518209889749, 1.396646642579272 ] } },
{ "type": "Feature", "properties": { "POI_TYPE": "Secondary", "POI_NAME": "Coral Secondary School", "POI_ADD": "31 Pasir Ris Street 51", "POSTCODE": "518901", "REMARK": null, "XI": 40851.611, "YI": 38840.083, "Tier": "Tier 3" }, "geometry": { "type": "Point", "coordinates": [ 103.948776628507105, 1.367542516538623 ] } },
{ "type": "Feature", "properties": { "POI_TYPE": "Secondary", "POI_NAME": "Crescent Girls' School", "POI_ADD": "357 Tanglin Road", "POSTCODE": "247961", "REMARK": null, "XI": 26261.298, "YI": 30653.308, "Tier": "Tier 3" }, "geometry": { "type": "Point", "coordinates": [ 103.81767349182779, 1.293505851057077 ] } },
{ "type": "Feature", "properties": { "POI_TYPE": "Secondary", "POI_NAME": "Damai Secondary School", "POI_ADD": "4800 Bedok Reservoir Road", "POSTCODE": "479229", "REMARK": null, "XI": 38450.144, "YI": 35440.433, "Tier": "Tier 3" }, "geometry": { "type": "Point", "coordinates": [ 103.927196829984069, 1.336798066591657 ] } },
{ "type": "Feature", "properties": { "POI_TYPE": "Secondary", "POI_NAME": "Deyi Secondary School", "POI_ADD": "1 Ang Mo Kio Street 42", "POSTCODE": "569277", "REMARK": null, "XI": 30142.999, "YI": 38832.737, "Tier": "Tier 2" }, "geometry": { "type": "Point", "coordinates": [ 103.852552242191948, 1.367478004649086 ] } },
{ "type": "Feature", "properties": { "POI_TYPE": "Secondary", "POI_NAME": "Dunearn Secondary School", "POI_ADD": "21 Bukit Batok West Avenue 2", "POSTCODE": "659204", "REMARK": null, "XI": 18164.606, "YI": 38410.177, "Tier": "Tier 3" }, "geometry": { "type": "Point", "coordinates": [ 103.744918162844698, 1.363654078507147 ] } },
{ "type": "Feature", "properties": { "POI_TYPE": "Secondary", "POI_NAME": "Dunman High School", "POI_ADD": "53 Mount Sinai Road", "POSTCODE": "276880", "REMARK": null, "XI": 22746.432, "YI": 32912.003, "Tier": "Tier 1"  }, "geometry": { "type": "Point", "coordinates": [ 103.786090360608782, 1.313932051860685 ] } },
{ "type": "Feature", "properties": { "POI_TYPE": "Secondary", "POI_NAME": "Dunman Secondary School", "POI_ADD": "21 Tampines Street 45", "POSTCODE": "529093", "REMARK": null, "XI": 41583.406, "YI": 38114.57, "Tier": "Tier 2" }, "geometry": { "type": "Point", "coordinates": [ 103.955352042518456, 1.360980968993661 ] } },
{ "type": "Feature", "properties": { "POI_TYPE": "Secondary", "POI_NAME": "East Spring Secondary School", "POI_ADD": "30 Tampines Street 34", "POSTCODE": "529231", "REMARK": null, "XI": 42234.497, "YI": 37698.091, "Tier": "Tier 3" }, "geometry": { "type": "Point", "coordinates": [ 103.961202368305749, 1.357214228682692 ] } },
{ "type": "Feature", "properties": { "POI_TYPE": "Secondary", "POI_NAME": "East View Secondary School", "POI_ADD": "3 Tampines Street 42", "POSTCODE": "529177", "REMARK": null, "XI": 40995.838, "YI": 37857.381, "Tier": "Tier 3" }, "geometry": { "type": "Point", "coordinates": [ 103.950072253356581, 1.358655264846593 ] } },
{ "type": "Feature", "properties": { "POI_TYPE": "Secondary", "POI_NAME": "Evergreen Secondary School", "POI_ADD": "11 Woodlands Street 83", "POSTCODE": "738489", "REMARK": null, "XI": 23676.617, "YI": 46989.04, "Tier": "Tier 2" }, "geometry": { "type": "Point", "coordinates": [ 103.794445434654563, 1.441239964422598 ] } },
{ "type": "Feature", "properties": { "POI_TYPE": "Secondary", "POI_NAME": "Fajar Secondary School", "POI_ADD": "31 Gangsa Road", "POSTCODE": "678972", "REMARK": null, "XI": 20366.504, "YI": 39609.891, "Tier": "Tier 3" }, "geometry": { "type": "Point", "coordinates": [ 103.764703329769489, 1.374504669710528 ] } },
{ "type": "Feature", "properties": { "POI_TYPE": "Secondary", "POI_NAME": "First Toa Payoh Secondary School", "POI_ADD": "580 Toa Payoh East", "POSTCODE": "319133", "REMARK": null, "XI": 30770.38, "YI": 35041.444, "Tier": "Tier 3" }, "geometry": { "type": "Point", "coordinates": [ 103.858189627340963, 1.333190871717206 ] } },
{ "type": "Feature", "properties": { "POI_TYPE": "Secondary", "POI_NAME": "Fuchun Secondary School", "POI_ADD": "21 Woodlands Avenue 1", "POSTCODE": "739062", "REMARK": null, "XI": 21806.707, "YI": 45826.183, "Tier": "Tier 3" }, "geometry": { "type": "Point", "coordinates": [ 103.777642801489549, 1.430723012277991 ] } },
{ "type": "Feature", "properties": { "POI_TYPE": "Secondary", "POI_NAME": "Fuhua Secondary School", "POI_ADD": "5 Jurong West Street 41", "POSTCODE": "649410", "REMARK": null, "XI": 16160.726, "YI": 36557.873, "Tier": "Tier 2" }, "geometry": { "type": "Point", "coordinates": [ 103.72691279307675, 1.34690164932176 ] } },
{ "type": "Feature", "properties": { "POI_TYPE": "Secondary", "POI_NAME": "Gan Eng Seng School", "POI_ADD": "1 Henderson Road", "POSTCODE": "159561", "REMARK": null, "XI": 26884.32, "YI": 30196.204, "Tier": "Tier 2" }, "geometry": { "type": "Point", "coordinates": [ 103.823271662179025, 1.289372033214349 ] } },
{ "type": "Feature", "properties": { "POI_TYPE": "Secondary", "POI_NAME": "Greendale Secondary School", "POI_ADD": "51 Edgedale Plains", "POSTCODE": "828866", "REMARK": null, "XI": 36707.285, "YI": 42074.805, "Tier": "Tier 3" }, "geometry": { "type": "Point", "coordinates": [ 103.911537669671176, 1.396797392046429 ] } },
{ "type": "Feature", "properties": { "POI_TYPE": "Secondary", "POI_NAME": "Greenridge Secondary School", "POI_ADD": "32 Bukit Panjang Ring Road", "POSTCODE": "679938", "REMARK": null, "XI": 21450.318, "YI": 40421.21, "Tier": "Tier 3" }, "geometry": { "type": "Point", "coordinates": [ 103.774441945417607, 1.381842288625953 ] } },
{ "type": "Feature", "properties": { "POI_TYPE": "Secondary", "POI_NAME": "Greenview Secondary School", "POI_ADD": "15 Pasir Ris Street 21", "POSTCODE": "518969", "REMARK": null, "XI": 42400.077, "YI": 39030.024, "Tier": "Tier 3" }, "geometry": { "type": "Point", "coordinates": [ 103.962690759524349, 1.369259673795866 ] } },
{ "type": "Feature", "properties": { "POI_TYPE": "Secondary", "POI_NAME": "Guangyang Secondary School", "POI_ADD": "8 Bishan Street 12", "POSTCODE": "579807", "REMARK": null, "XI": 29913.291, "YI": 36302.67, "Tier": "Tier 3" }, "geometry": { "type": "Point", "coordinates": [ 103.85048817848751, 1.344596963680881 ] } },
{ "type": "Feature", "properties": { "POI_TYPE": "Secondary", "POI_NAME": "Henderson Secondary School", "POI_ADD": "100 Henderson Rd", "POSTCODE": "159544", "REMARK": null, "XI": 26462.088, "YI": 29715.726, "Tier": "Tier 3" }, "geometry": { "type": "Point", "coordinates": [ 103.819477787792479, 1.285026709389014 ] } },
{ "type": "Feature", "properties": { "POI_TYPE": "Secondary", "POI_NAME": "Hillgrove Secondary School", "POI_ADD": "10 Bukit Batok Street 52", "POSTCODE": "659250", "REMARK": null, "XI": 19153.426, "YI": 37265.923, "Tier": "Tier 3" }, "geometry": { "type": "Point", "coordinates": [ 103.75380381082978, 1.353306246940267 ] } },
{ "type": "Feature", "properties": { "POI_TYPE": "Secondary", "POI_NAME": "Hong Kah Secondary School", "POI_ADD": "931 Jurong West Street 42", "POSTCODE": "649370", "REMARK": null, "XI": 16164.384, "YI": 37118.355, "Tier": "Tier 3" }, "geometry": { "type": "Point", "coordinates": [ 103.72694540153789, 1.351970441839219 ] } },
{ "type": "Feature", "properties": { "POI_TYPE": "Secondary", "POI_NAME": "Hougang Secondary School", "POI_ADD": "2 Hougang Street 93", "POSTCODE": "534256", "REMARK": null, "XI": 33384.592, "YI": 39992.562, "Tier": "Tier 3" }, "geometry": { "type": "Point", "coordinates": [ 103.881680351553058, 1.3779668805549 ] } },
{ "type": "Feature", "properties": { "POI_TYPE": "Secondary", "POI_NAME": "Hua Yi Secondary School", "POI_ADD": "60 Jurong West St 42", "POSTCODE": "649371", "REMARK": null, "XI": 15633.256, "YI": 37225.814, "Tier": "Tier 2" }, "geometry": { "type": "Point", "coordinates": [ 103.72217282309218, 1.352942006802557 ] } },
{ "type": "Feature", "properties": { "POI_TYPE": "Secondary", "POI_NAME": "Junyuan Secondary School", "POI_ADD": "11 Tampines Street 84", "POSTCODE": "528933", "REMARK": null, "XI": 39248.937, "YI": 37288.482, "Tier": "Tier 3" }, "geometry": { "type": "Point", "coordinates": [ 103.934375008562725, 1.353510930133282 ] } },
{ "type": "Feature", "properties": { "POI_TYPE": "Secondary", "POI_NAME": "Jurong Secondary School", "POI_ADD": "31 Yuan Ching Road", "POSTCODE": "618652", "REMARK": null, "XI": 15868.109, "YI": 34662.302, "Tier": "Tier 2" }, "geometry": { "type": "Point", "coordinates": [ 103.724284340488921, 1.329758671918901 ] } },
{ "type": "Feature", "properties": { "POI_TYPE": "Secondary", "POI_NAME": "Jurong West Secondary School", "POI_ADD": "61 Jurong West Street 65", "POSTCODE": "648348", "REMARK": null, "XI": 13357.863, "YI": 35368.692, "Tier": "Tier 3" }, "geometry": { "type": "Point", "coordinates": [ 103.701727980601092, 1.336145707131389 ] } },
{ "type": "Feature", "properties": { "POI_TYPE": "Secondary", "POI_NAME": "Jurongville Secondary School", "POI_ADD": "202 Jurong East Avenue 1", "POSTCODE": "609790", "REMARK": null, "XI": 16445.883, "YI": 36950.412, "Tier": "Tier 3" }, "geometry": { "type": "Point", "coordinates": [ 103.729474927684137, 1.350451758497823 ] } },
{ "type": "Feature", "properties": { "POI_TYPE": "Secondary", "POI_NAME": "Juying Secondary School", "POI_ADD": "33 Jurong West Street 91", "POSTCODE": "649038", "REMARK": null, "XI": 11774.285, "YI": 35628.134, "Tier": "Tier 3" }, "geometry": { "type": "Point", "coordinates": [ 103.68749844926441, 1.338491077008826 ] } },
{ "type": "Feature", "properties": { "POI_TYPE": "Secondary", "POI_NAME": "Kent Ridge Secondary School", "POI_ADD": "147 West Coast Road", "POSTCODE": "127368", "REMARK": null, "XI": 20435.828, "YI": 31585.006, "Tier": "Tier 3" }, "geometry": { "type": "Point", "coordinates": [ 103.765328833290198, 1.301930518848349 ] } },
{ "type": "Feature", "properties": { "POI_TYPE": "Secondary", "POI_NAME": "Kranji Secondary School", "POI_ADD": "61 Choa Chu Kang Street 51", "POSTCODE": "689333", "REMARK": null, "XI": 17751.998, "YI": 41432.671, "Tier": "Tier 1"  }, "geometry": { "type": "Point", "coordinates": [ 103.741209323182872, 1.39098822787789 ] } },
{ "type": "Feature", "properties": { "POI_TYPE": "Secondary", "POI_NAME": "Loyang Secondary School", "POI_ADD": "12 Pasir Ris Street 11", "POSTCODE": "519073", "REMARK": null, "XI": 41884.681, "YI": 38745.883, "Tier": "Tier 3" }, "geometry": { "type": "Point", "coordinates": [ 103.958059449931142, 1.366690215461301 ] } },
{ "type": "Feature", "properties": { "POI_TYPE": "Secondary", "POI_NAME": "Macpherson Secondary School", "POI_ADD": "121 Circuit Road", "POSTCODE": "379499", "REMARK": null, "XI": 34231.636, "YI": 34392.641, "Tier": "Tier 3" }, "geometry": { "type": "Point", "coordinates": [ 103.889290916277346, 1.327323060977541 ] } },
{ "type": "Feature", "properties": { "POI_TYPE": "Secondary", "POI_NAME": "Marsiling Secondary School", "POI_ADD": "12 Marsiling Road", "POSTCODE": "739110", "REMARK": null, "XI": 21630.74, "YI": 46587.825, "Tier": "Tier 3" }, "geometry": { "type": "Point", "coordinates": [ 103.77606134239285, 1.43761097209023 ] } },
{ "type": "Feature", "properties": { "POI_TYPE": "Secondary", "POI_NAME": "Mayflower Secondary School", "POI_ADD": "2 Ang Mo Kio Street 21", "POSTCODE": "569384", "REMARK": null, "XI": 28182.858, "YI": 38951.394, "Tier": "Tier 2" }, "geometry": { "type": "Point", "coordinates": [ 103.834938994087622, 1.368551028484413 ] } },
{ "type": "Feature", "properties": { "POI_TYPE": "Secondary", "POI_NAME": "National Junior College", "POI_ADD": "37 Hillcrest Road", "POSTCODE": "288913", "REMARK": null, "XI": 24827.855, "YI": 34794.969, "Tier": "Tier 1"  }, "geometry": { "type": "Point", "coordinates": [ 103.804792669020301, 1.330961369046806 ] } },
{ "type": "Feature", "properties": { "POI_TYPE": "Secondary", "POI_NAME": "Naval Base Secondary School", "POI_ADD": "901 Yishun Ring Road", "POSTCODE": "768689", "REMARK": null, "XI": 27706.449, "YI": 44567.95, "Tier": "Tier 3" }, "geometry": { "type": "Point", "coordinates": [ 103.830657644775101, 1.419345137202066 ] } },
{ "type": "Feature", "properties": { "POI_TYPE": "Secondary", "POI_NAME": "New Town Secondary School", "POI_ADD": "1020 Dover Road", "POSTCODE": "139657", "REMARK": null, "XI": 21280.817, "YI": 32388.516, "Tier": "Tier 3" }, "geometry": { "type": "Point", "coordinates": [ 103.772921220153407, 1.309197431857309 ] } },
{ "type": "Feature", "properties": { "POI_TYPE": "Secondary", "POI_NAME": "North View Secondary School", "POI_ADD": "530 Yishun Ring Road", "POSTCODE": "768680", "REMARK": null, "XI": 29256.316, "YI": 45483.954, "Tier": "Tier 3" }, "geometry": { "type": "Point", "coordinates": [ 103.844584560081003, 1.427629244894135 ] } },
{ "type": "Feature", "properties": { "POI_TYPE": "Secondary", "POI_NAME": "North Vista Secondary School", "POI_ADD": "11 Rivervale Link", "POSTCODE": "545081", "REMARK": null, "XI": 35354.685, "YI": 40323.393, "Tier": "Tier 3" }, "geometry": { "type": "Point", "coordinates": [ 103.899383152835966, 1.380958518007506 ] } },
{ "type": "Feature", "properties": { "POI_TYPE": "Secondary", "POI_NAME": "Northbrooks Secondary School", "POI_ADD": "585 Yishun Ring Road", "POSTCODE": "768692", "REMARK": null, "XI": 29187.002, "YI": 44854.659, "Tier": "Tier 3" }, "geometry": { "type": "Point", "coordinates": [ 103.843961731572094, 1.421938122356722 ] } },
{ "type": "Feature", "properties": { "POI_TYPE": "Secondary", "POI_NAME": "Northland Secondary School", "POI_ADD": "3 Yishun Street 22", "POSTCODE": "768578", "REMARK": null, "XI": 28737.778, "YI": 46423.367, "Tier": "Tier 3" }, "geometry": { "type": "Point", "coordinates": [ 103.839924966193252, 1.436124939386039 ] } },
{ "type": "Feature", "properties": { "POI_TYPE": "Secondary", "POI_NAME": "Orchid Park Secondary School", "POI_ADD": "10 Yishun Street 81", "POSTCODE": "768454", "REMARK": null, "XI": 28471.407, "YI": 44170.518, "Tier": "Tier 3" }, "geometry": { "type": "Point", "coordinates": [ 103.837531502476097, 1.41575095996054 ] } },
{ "type": "Feature", "properties": { "POI_TYPE": "Secondary", "POI_NAME": "Outram Secondary School", "POI_ADD": "3 York Hill", "POSTCODE": "168622", "REMARK": null, "XI": 28410.618, "YI": 29798.648, "Tier": "Tier 3" }, "geometry": { "type": "Point", "coordinates": [ 103.836986110645711, 1.285776798163433 ] } },
{ "type": "Feature", "properties": { "POI_TYPE": "Secondary", "POI_NAME": "Pasir Ris Crest Secondary School", "POI_ADD": "11 Pasir Ris Street 41", "POSTCODE": "518934", "REMARK": null, "XI": 42106.818, "YI": 39485.224, "Tier": "Tier 2" }, "geometry": { "type": "Point", "coordinates": [ 103.960055802762554, 1.37337645526338 ] } },
{ "type": "Feature", "properties": { "POI_TYPE": "Secondary", "POI_NAME": "Pasir Ris Secondary School", "POI_ADD": "2 Bedok South Road", "POSTCODE": "469268", "REMARK": null, "XI": 38326.266, "YI": 33788.259, "Tier": "Tier 2" }, "geometry": { "type": "Point", "coordinates": [ 103.926083273986492, 1.321856426222219 ] } },
{ "type": "Feature", "properties": { "POI_TYPE": "Secondary", "POI_NAME": "Pei Hwa Secondary School", "POI_ADD": "21 Fernvale Link", "POSTCODE": "797702", "REMARK": null, "XI": 32896.639, "YI": 41424.358, "Tier": "Tier 3" }, "geometry": { "type": "Point", "coordinates": [ 103.877295864624145, 1.390915586855842 ] } },
{ "type": "Feature", "properties": { "POI_TYPE": "Secondary", "POI_NAME": "Peicai Secondary School", "POI_ADD": "10 Serangoon Avenue 4", "POSTCODE": "556094", "REMARK": null, "XI": 32157.185, "YI": 37847.766, "Tier": "Tier 3" }, "geometry": { "type": "Point", "coordinates": [ 103.870651049776001, 1.358570207636488 ] } },
{ "type": "Feature", "properties": { "POI_TYPE": "Secondary", "POI_NAME": "Peirce Secondary School", "POI_ADD": "02 Ang Mo Kio Street 23", "POSTCODE": "569341", "REMARK": null, "XI": 28782.057, "YI": 38984.639, "Tier": "Tier 3" }, "geometry": { "type": "Point", "coordinates": [ 103.840323217672335, 1.36885171930264 ] } },
{ "type": "Feature", "properties": { "POI_TYPE": "Secondary", "POI_NAME": "Ping Yi Secondary School", "POI_ADD": "61 Chai Chee Street", "POSTCODE": "468980", "REMARK": null, "XI": 37698.129, "YI": 34472.095, "Tier": "Tier 3" }, "geometry": { "type": "Point", "coordinates": [ 103.9204392947846, 1.32804095743174 ] } },
{ "type": "Feature", "properties": { "POI_TYPE": "Secondary", "POI_NAME": "Pioneer Secondary School", "POI_ADD": "21 Jurong West Street 81", "POSTCODE": "649075", "REMARK": null, "XI": 12565.551, "YI": 36673.911, "Tier": "Tier 3" }, "geometry": { "type": "Point", "coordinates": [ 103.694607834643818, 1.347949154982781 ] } },
{ "type": "Feature", "properties": { "POI_TYPE": "Secondary", "POI_NAME": "Punggol Secondary School", "POI_ADD": "51 Edgefield Plains", "POSTCODE": "828870", "REMARK": null, "XI": 36441.667, "YI": 42618.591, "Tier": "Tier 3" }, "geometry": { "type": "Point", "coordinates": [ 103.90915099344123, 1.401715256592829 ] } },
{ "type": "Feature", "properties": { "POI_TYPE": "Secondary", "POI_NAME": "Queenstown Secondary School", "POI_ADD": "1 Strathmore Road", "POSTCODE": "148800", "REMARK": null, "XI": 25823.796, "YI": 30707.879, "Tier": "Tier 3" }, "geometry": { "type": "Point", "coordinates": [ 103.813742339429567, 1.293999314058635 ] } },
{ "type": "Feature", "properties": { "POI_TYPE": "Secondary", "POI_NAME": "Queensway Secondary School", "POI_ADD": "2A Margaret Drive", "POSTCODE": "149295", "REMARK": null, "XI": 24616.876, "YI": 31372.26, "Tier": "Tier 2" }, "geometry": { "type": "Point", "coordinates": [ 103.80289752067641, 1.300007551428957 ] } },
{ "type": "Feature", "properties": { "POI_TYPE": "Secondary", "POI_NAME": "Regent Secondary School", "POI_ADD": "50 Choa Chu Kang North 5", "POSTCODE": "689621", "REMARK": null, "XI": 18815.101, "YI": 41710.226, "Tier": "Tier 3" }, "geometry": { "type": "Point", "coordinates": [ 103.750762033516381, 1.393498769226004 ] } },
{ "type": "Feature", "properties": { "POI_TYPE": "Secondary", "POI_NAME": "River Valley High School", "POI_ADD": "2 Malan Road", "POSTCODE": "109433", "REMARK": null, "XI": 24714.23, "YI": 28739.654, "Tier": "Tier 1"  }, "geometry": { "type": "Point", "coordinates": [ 103.803772747641631, 1.276199198035417 ] } },
{ "type": "Feature", "properties": { "POI_TYPE": "Secondary", "POI_NAME": "Riverside Secondary School", "POI_ADD": "3 Woodlands Street 81", "POSTCODE": "738524", "REMARK": null, "XI": 23038.891, "YI": 46904.093, "Tier": "Tier 2" }, "geometry": { "type": "Point", "coordinates": [ 103.788714861818278, 1.440471579040571 ] } },
{ "type": "Feature", "properties": { "POI_TYPE": "Secondary", "POI_NAME": "Sembawang Secondary School", "POI_ADD": "30 Sembawang Crescent", "POSTCODE": "757704", "REMARK": null, "XI": 26129.155, "YI": 47468.349, "Tier": "Tier 3" }, "geometry": { "type": "Point", "coordinates": [ 103.816483828054615, 1.445575125873459 ] } },
{ "type": "Feature", "properties": { "POI_TYPE": "Secondary", "POI_NAME": "Seng Kang Secondary School", "POI_ADD": "10 Compassvale Lane", "POSTCODE": "545090", "REMARK": null, "XI": 35194.458, "YI": 40868.573 , "Tier": "Tier 3"}, "geometry": { "type": "Point", "coordinates": [ 103.897943485652434, 1.385888960136451 ] } },
{ "type": "Feature", "properties": { "POI_TYPE": "Secondary", "POI_NAME": "Serangoon Garden Secondary School", "POI_ADD": "21 Serangoon North Avenue 1", "POSTCODE": "555889", "REMARK": null, "XI": 32000.74, "YI": 39065.199, "Tier": "Tier 3" }, "geometry": { "type": "Point", "coordinates": [ 103.8692453608286, 1.369580253984948 ] } },
{ "type": "Feature", "properties": { "POI_TYPE": "Secondary", "POI_NAME": "Serangoon Secondary School", "POI_ADD": "11 Upper Serangoon View", "POSTCODE": "534237", "REMARK": null, "XI": 35746.461, "YI": 39660.538 , "Tier": "Tier 3"}, "geometry": { "type": "Point", "coordinates": [ 103.902903429748733, 1.374963821211357 ] } },
{ "type": "Feature", "properties": { "POI_TYPE": "Secondary", "POI_NAME": "Shuqun Secondary School", "POI_ADD": "450 Jurong East Street 21", "POSTCODE": "609604", "REMARK": null, "XI": 17507.325, "YI": 35782.203 , "Tier": "Tier 3"}, "geometry": { "type": "Point", "coordinates": [ 103.739013150584256, 1.339887374546995 ] } },
{ "type": "Feature", "properties": { "POI_TYPE": "Secondary", "POI_NAME": "Si Ling Secondary School", "POI_ADD": "11 Marsiling Lane", "POSTCODE": "739148", "REMARK": null, "XI": 21471.928, "YI": 47352.285 , "Tier": "Tier 3"}, "geometry": { "type": "Point", "coordinates": [ 103.774634026580159, 1.444524420186755 ] } },
{ "type": "Feature", "properties": { "POI_TYPE": "Secondary", "POI_NAME": "Siglap Secondary School", "POI_ADD": "10 Pasir Ris Drive 10", "POSTCODE": "519385", "REMARK": null, "XI": 39898.822, "YI": 40260.051 , "Tier": "Tier 3"}, "geometry": { "type": "Point", "coordinates": [ 103.940215616891308, 1.380384521245529 ] } },
{ "type": "Feature", "properties": { "POI_TYPE": "Secondary", "POI_NAME": "Springfield Secondary School", "POI_ADD": "30 Tampines Avenue 8", "POSTCODE": "529593", "REMARK": null, "XI": 38681.449, "YI": 36871.235 , "Tier": "Tier 3"}, "geometry": { "type": "Point", "coordinates": [ 103.929275642679826, 1.349737664429801 ] } },
{ "type": "Feature", "properties": { "POI_TYPE": "Secondary", "POI_NAME": "Swiss Cottage Secondary School", "POI_ADD": "3 Bukit Batok Street 34", "POSTCODE": "659322", "REMARK": null, "XI": 18747.926, "YI": 38438.654, "Tier": "Tier 1"  }, "geometry": { "type": "Point", "coordinates": [ 103.750159682209286, 1.36391184517925 ] } },
{ "type": "Feature", "properties": { "POI_TYPE": "Secondary", "POI_NAME": "Tampines Secondary School", "POI_ADD": "252 Tampines Street 12", "POSTCODE": "529427", "REMARK": null, "XI": 40386.896, "YI": 36843.491 , "Tier": "Tier 3"}, "geometry": { "type": "Point", "coordinates": [ 103.944600158314543, 1.349486225478073 ] } },
{ "type": "Feature", "properties": { "POI_TYPE": "Secondary", "POI_NAME": "Tanglin Secondary School", "POI_ADD": "301 West Coast Road", "POSTCODE": "127391", "REMARK": null, "XI": 19732.913, "YI": 32487.268, "Tier": "Tier 3" }, "geometry": { "type": "Point", "coordinates": [ 103.759012513958169, 1.310090023609067 ] } },
{ "type": "Feature", "properties": { "POI_TYPE": "Secondary", "POI_NAME": "Tanjong Katong Girls' School", "POI_ADD": "20 Dunman Lane", "POSTCODE": "439272", "REMARK": null, "XI": 35000.493, "YI": 32234.686, "Tier": "Tier 1"  }, "geometry": { "type": "Point", "coordinates": [ 103.896199185943232, 1.307807159582879 ] } },
{ "type": "Feature", "properties": { "POI_TYPE": "Secondary", "POI_NAME": "Tanjong Katong Secondary School", "POI_ADD": "130 Haig Road", "POSTCODE": "438796", "REMARK": null, "XI": 35227.328, "YI": 32232.26, "Tier": "Tier 1"  }, "geometry": { "type": "Point", "coordinates": [ 103.898237407756724, 1.30778518355325 ] } },
{ "type": "Feature", "properties": { "POI_TYPE": "Secondary", "POI_NAME": "Teck Whye Secondary School", "POI_ADD": "31 Teck Whye Crescent", "POSTCODE": "688848", "REMARK": null, "XI": 19337.835, "YI": 40551.288, "Tier": "Tier 3" }, "geometry": { "type": "Point", "coordinates": [ 103.755459645097389, 1.383017958471892 ] } },
{ "type": "Feature", "properties": { "POI_TYPE": "Secondary", "POI_NAME": "Telok Kurau Secondary School", "POI_ADD": "3 Chin Cheng Avenue", "POSTCODE": "429401", "REMARK": null, "XI": 36135.198, "YI": 33254.284 , "Tier": "Tier 3"}, "geometry": { "type": "Point", "coordinates": [ 103.906395254853734, 1.317027848565431 ] } },
{ "type": "Feature", "properties": { "POI_TYPE": "Secondary", "POI_NAME": "Temasek Secondary School", "POI_ADD": "600 Upper East Coast Road", "POSTCODE": "465561", "REMARK": null, "XI": 40696.308, "YI": 33163.575 , "Tier": "Tier 3"}, "geometry": { "type": "Point", "coordinates": [ 103.947379154512461, 1.316206286357546 ] } },
{ "type": "Feature", "properties": { "POI_TYPE": "Secondary", "POI_NAME": "Unity Secondary School", "POI_ADD": "20 Choa Chu Kang Street 62", "POSTCODE": "689143", "REMARK": null, "XI": 18219.851, "YI": 42337.211, "Tier": "Tier 2" }, "geometry": { "type": "Point", "coordinates": [ 103.745412979572905, 1.399168750234483 ] } },
{ "type": "Feature", "properties": { "POI_TYPE": "Secondary", "POI_NAME": "Victoria Junior College", "POI_ADD": "20 Marine Vista", "POSTCODE": "449035", "REMARK": null, "XI": 37499.57, "YI": 32177.63, "Tier": "Tier 1" }, "geometry": { "type": "Point", "coordinates": [ 103.918654588427572, 1.30729067524074 ] } },
{ "type": "Feature", "properties": { "POI_TYPE": "Secondary", "POI_NAME": "Victoria School", "POI_ADD": "2 Siglap Link", "POSTCODE": "448880", "REMARK": null, "XI": 38387.597, "YI": 32353.713, "Tier": "Tier 1"  }, "geometry": { "type": "Point", "coordinates": [ 103.926633985498583, 1.308882884796629 ] } },
{ "type": "Feature", "properties": { "POI_TYPE": "Secondary", "POI_NAME": "Westwood Secondary School", "POI_ADD": "11 Jurong West Street 25", "POSTCODE": "648350", "REMARK": null, "XI": 13444.368, "YI": 37332.357 , "Tier": "Tier 3"}, "geometry": { "type": "Point", "coordinates": [ 103.702504190660861, 1.353904393528089 ] } },
{ "type": "Feature", "properties": { "POI_TYPE": "Secondary", "POI_NAME": "Whitley Secondary School", "POI_ADD": "430 Toa Payoh Lorong 1", "POSTCODE": "319759", "REMARK": null, "XI": 29179.714, "YI": 35807.896 , "Tier": "Tier 3"}, "geometry": { "type": "Point", "coordinates": [ 103.843896553667861, 1.340122384702151 ] } },
{ "type": "Feature", "properties": { "POI_TYPE": "Secondary", "POI_NAME": "Woodgrove Secondary School", "POI_ADD": "3 Woodlands Avenue 6", "POSTCODE": "738990", "REMARK": null, "XI": 23883.22, "YI": 45598.181 , "Tier": "Tier 3"}, "geometry": { "type": "Point", "coordinates": [ 103.796302275241686, 1.428661584744006 ] } },
{ "type": "Feature", "properties": { "POI_TYPE": "Secondary", "POI_NAME": "Woodlands Ring Secondary School", "POI_ADD": "10 Woodlands Ring Road", "POSTCODE": "738239", "REMARK": null, "XI": 24435.696, "YI": 46449.081, "Tier": "Tier 2" }, "geometry": { "type": "Point", "coordinates": [ 103.8012666149409, 1.436356936007092 ] } },
{ "type": "Feature", "properties": { "POI_TYPE": "Secondary", "POI_NAME": "Xinmin Secondary School", "POI_ADD": "11 Hougang Avenue 8", "POSTCODE": "538789", "REMARK": null, "XI": 33595.161, "YI": 39333.662, "Tier": "Tier 1"  }, "geometry": { "type": "Point", "coordinates": [ 103.883572394012489, 1.372007997872264 ] } },
{ "type": "Feature", "properties": { "POI_TYPE": "Secondary", "POI_NAME": "Yio Chu Kang Secondary School", "POI_ADD": "3063 Ang Mo Kio Avenue 5", "POSTCODE": "569868", "REMARK": null, "XI": 28948.671, "YI": 40073.107 , "Tier": "Tier 3"}, "geometry": { "type": "Point", "coordinates": [ 103.841820316270159, 1.378695448475953 ] } },
{ "type": "Feature", "properties": { "POI_TYPE": "Secondary", "POI_NAME": "Yishun Secondary School", "POI_ADD": "4 Yishun Street 71", "POSTCODE": "768516", "REMARK": null, "XI": 27482.212, "YI": 45457.723 , "Tier": "Tier 3"}, "geometry": { "type": "Point", "coordinates": [ 103.82864258973872, 1.427391906741667 ] } },
{ "type": "Feature", "properties": { "POI_TYPE": "Secondary", "POI_NAME": "Yishun Town Secondary School", "POI_ADD": "61 Sembawang Drive", "POSTCODE": "757622", "REMARK": null, "XI": 25844.429, "YI": 48741.195, "Tier": "Tier 1"  }, "geometry": { "type": "Point", "coordinates": [ 103.813925082871677, 1.457086244294711 ] } },
{ "type": "Feature", "properties": { "POI_TYPE": "Secondary", "POI_NAME": "Yuan Ching Secondary School", "POI_ADD": "103 Yuan Ching Road", "POSTCODE": "618654", "REMARK": null, "XI": 15314.402, "YI": 35971.524, "Tier": "Tier 2" }, "geometry": { "type": "Point", "coordinates": [ 103.719308332225594, 1.341598520494411 ] } },
{ "type": "Feature", "properties": { "POI_TYPE": "Secondary", "POI_NAME": "Yuhua Secondary School", "POI_ADD": "35 Jurong West Street 41", "POSTCODE": "649406", "REMARK": null, "XI": 15726.977, "YI": 36647.353 , "Tier": "Tier 3"}, "geometry": { "type": "Point", "coordinates": [ 103.723015244743166, 1.347710667001879 ] } },
{ "type": "Feature", "properties": { "POI_TYPE": "Secondary", "POI_NAME": "Yusof Ishak Secondary School", "POI_ADD": "11 Bukit Batok Street 25", "POSTCODE": "658712", "REMARK": null, "XI": 19769.976, "YI": 36015.133 , "Tier": "Tier 3"}, "geometry": { "type": "Point", "coordinates": [ 103.759344344028534, 1.34199477638086 ] } },
{ "type": "Feature", "properties": { "POI_TYPE": "Secondary", "POI_NAME": "Zhenghua Secondary School", "POI_ADD": "91 Senja Road", "POSTCODE": "677741", "REMARK": null, "XI": 20483.837, "YI": 41143.829, "Tier": "Tier 2" }, "geometry": { "type": "Point", "coordinates": [ 103.765757145986854, 1.3883770875289 ] } },
{ "type": "Feature", "properties": { "POI_TYPE": "Secondary", "POI_NAME": "Zhonghua Secondary School", "POI_ADD": "13 Serangoon Avenue 3", "POSTCODE": "556123", "REMARK": null, "XI": 32025.083, "YI": 36790.564, "Tier": "Tier 1"  }, "geometry": { "type": "Point", "coordinates": [ 103.869463960619967, 1.349009251719085 ] } },
{ "type": "Feature", "properties": { "POI_TYPE": "Secondary", "POI_NAME": "Anglican High School", "POI_ADD": "600 Upper Changi Road", "POSTCODE": "487012", "REMARK": null, "XI": 40039.07, "YI": 34685.985 , "Tier": "Tier 1"}, "geometry": { "type": "Point", "coordinates": [ 103.941474021058298, 1.329974634171323 ] } },
{ "type": "Feature", "properties": { "POI_TYPE": "Secondary", "POI_NAME": "Anglo-Chinese School (Barker Road)", "POI_ADD": "60 Barker Road", "POSTCODE": "309919", "REMARK": null, "XI": 28298.125, "YI": 33547.087 , "Tier": "Tier 3"}, "geometry": { "type": "Point", "coordinates": [ 103.835975087823101, 1.319676374032663 ] } },
{ "type": "Feature", "properties": { "POI_TYPE": "Secondary", "POI_NAME": "Assumption English School", "POI_ADD": "622 Upper Bukit Timah Road", "POSTCODE": "678117", "REMARK": null, "XI": 20580.631, "YI": 39079.742 , "Tier": "Tier 3"}, "geometry": { "type": "Point", "coordinates": [ 103.766627588373851, 1.369710264791882 ] } },
{ "type": "Feature", "properties": { "POI_TYPE": "Secondary", "POI_NAME": "Catholic High School", "POI_ADD": "9 Bishan Street 22", "POSTCODE": "579767", "REMARK": null, "XI": 29175.269, "YI": 37504.362, "Tier": "Tier 1"  }, "geometry": { "type": "Point", "coordinates": [ 103.843856555441377, 1.355464629660834 ] } },
{ "type": "Feature", "properties": { "POI_TYPE": "Secondary", "POI_NAME": "Chij Katong Convent", "POI_ADD": "346 Marine Terrace", "POSTCODE": "449150", "REMARK": null, "XI": 37323.475, "YI": 32018.457, "Tier": "Tier 2" }, "geometry": { "type": "Point", "coordinates": [ 103.917072253503321, 1.30585121184397 ] } },
{ "type": "Feature", "properties": { "POI_TYPE": "Secondary", "POI_NAME": "Chij Secondary (Toa Payoh)", "POI_ADD": "626 Lorong 1 Toa Payoh", "POSTCODE": "319764", "REMARK": null, "XI": 28997.759, "YI": 34911.38 , "Tier": "Tier 3"}, "geometry": { "type": "Point", "coordinates": [ 103.842261614060931, 1.33201460017952 ] } },
{ "type": "Feature", "properties": { "POI_TYPE": "Secondary", "POI_NAME": "Chij St. Joseph'S Convent", "POI_ADD": "62 Sengkang East Way", "POSTCODE": "548595", "REMARK": null, "XI": 35697.146, "YI": 41518.463, "Tier": "Tier 2" }, "geometry": { "type": "Point", "coordinates": [ 103.902460646462671, 1.391766243250888 ] } },
{ "type": "Feature", "properties": { "POI_TYPE": "Secondary", "POI_NAME": "Chij St. Nicholas Girls' School", "POI_ADD": "501 Ang Mo Kio Street 13", "POSTCODE": "569405", "REMARK": null, "XI": 28079.401, "YI": 39434.418, "Tier": "Tier 1"  }, "geometry": { "type": "Point", "coordinates": [ 103.834009325637624, 1.372919320343476 ] } },
{ "type": "Feature", "properties": { "POI_TYPE": "Secondary", "POI_NAME": "Chij St. Theresa'S Convent", "POI_ADD": "160 Lower Delta Road", "POSTCODE": "099138", "REMARK": null, "XI": 26650.012, "YI": 28648.392, "Tier": "Tier 2" }, "geometry": { "type": "Point", "coordinates": [ 103.821166479739716, 1.275374131911685 ] } },
{ "type": "Feature", "properties": { "POI_TYPE": "Secondary", "POI_NAME": "Christ Church Secondary School", "POI_ADD": "20 Woodlands Drive 17", "POSTCODE": "737924", "REMARK": null, "XI": 23447.321, "YI": 45335.431, "Tier": "Tier 3" }, "geometry": { "type": "Point", "coordinates": [ 103.792385378283441, 1.426285267933843 ] } },
{ "type": "Feature", "properties": { "POI_TYPE": "Secondary", "POI_NAME": "Chung Cheng High School (Main)", "POI_ADD": "50 Goodman Road", "POSTCODE": "439012", "REMARK": null, "XI": 34389.232, "YI": 31967.639, "Tier": "Tier 1"  }, "geometry": { "type": "Point", "coordinates": [ 103.890706674163823, 1.305392168691906 ] } },
{ "type": "Feature", "properties": { "POI_TYPE": "Secondary", "POI_NAME": "Fairfield Methodist Secondary School", "POI_ADD": "102 Dover Road", "POSTCODE": "139649", "REMARK": null, "XI": 22514.782, "YI": 31556.583, "Tier": "Tier 1"  }, "geometry": { "type": "Point", "coordinates": [ 103.784009203096275, 1.301674055325688 ] } },
{ "type": "Feature", "properties": { "POI_TYPE": "Secondary", "POI_NAME": "Geylang Methodist School (Secondary)", "POI_ADD": "3 Geylang Bahru Lane", "POSTCODE": "339626", "REMARK": null, "XI": 32196.217, "YI": 34121.173, "Tier": "Tier 2" }, "geometry": { "type": "Point", "coordinates": [ 103.871001532029496, 1.324868201010573 ] } },
{ "type": "Feature", "properties": { "POI_TYPE": "Secondary", "POI_NAME": "Hai Sing Catholic School", "POI_ADD": "9 Pasir Ris Drive 6", "POSTCODE": "519421", "REMARK": null, "XI": 41583.808, "YI": 39628.21, "Tier": "Tier 2" }, "geometry": { "type": "Point", "coordinates": [ 103.955356234775991, 1.374669775465635 ] } },
{ "type": "Feature", "properties": { "POI_TYPE": "Secondary", "POI_NAME": "Holy Innocents' High School", "POI_ADD": "1191 Upper Serangoon Road", "POSTCODE": "534786", "REMARK": null, "XI": 34864.164, "YI": 39341.156, "Tier": "Tier 2" }, "geometry": { "type": "Point", "coordinates": [ 103.894975297846585, 1.372075596991073 ] } },
{ "type": "Feature", "properties": { "POI_TYPE": "Secondary", "POI_NAME": "Kuo Chuan Presbyterian Secondary School", "POI_ADD": "10 Bishan Street 13", "POSTCODE": "579795", "REMARK": null, "XI": 30420.238, "YI": 36933.027, "Tier": "Tier 2" }, "geometry": { "type": "Point", "coordinates": [ 103.855043414420024, 1.35029769243031 ] } },
{ "type": "Feature", "properties": { "POI_TYPE": "Secondary", "POI_NAME": "Manjusri Secondary School", "POI_ADD": "149 Sims Drive", "POSTCODE": "387380", "REMARK": null, "XI": 32800.864, "YI": 33164.002 , "Tier": "Tier 3"}, "geometry": { "type": "Point", "coordinates": [ 103.876434533617612, 1.316211834270771 ] } },
{ "type": "Feature", "properties": { "POI_TYPE": "Secondary", "POI_NAME": "Maris Stella High School", "POI_ADD": "25 Mount Vernon Road", "POSTCODE": "368051", "REMARK": null, "XI": 32949.243, "YI": 35993.093 , "Tier": "Tier 1" }, "geometry": { "type": "Point", "coordinates": [ 103.877768050006338, 1.341797132586793 ] } },
{ "type": "Feature", "properties": { "POI_TYPE": "Secondary", "POI_NAME": "Montfort Secondary School", "POI_ADD": "50 Hougang Avenue 8", "POSTCODE": "538785", "REMARK": null, "XI": 34267.075, "YI": 39719.287, "Tier": "Tier 3" }, "geometry": { "type": "Point", "coordinates": [ 103.889610076572083, 1.37549536876473 ] } },
{ "type": "Feature", "properties": { "POI_TYPE": "Secondary", "POI_NAME": "Nan Chiau High School", "POI_ADD": "20 Anchorvale Link", "POSTCODE": "545079", "REMARK": null, "XI": 34201.759, "YI": 41212.198, "Tier": "Tier 1"  }, "geometry": { "type": "Point", "coordinates": [ 103.889023368038366, 1.388996736252447 ] } },
{ "type": "Feature", "properties": { "POI_TYPE": "Secondary", "POI_NAME": "Ngee Ann Secondary School", "POI_ADD": "1 Tampines Street 32", "POSTCODE": "529283", "REMARK": null, "XI": 41819.846, "YI": 37334.038, "Tier": "Tier 1"  }, "geometry": { "type": "Point", "coordinates": [ 103.95747631301019, 1.353922031220959 ] } },
{ "type": "Feature", "properties": { "POI_TYPE": "Secondary", "POI_NAME": "Paya Lebar Methodist Girls' School (Secondary)", "POI_ADD": "296 Lor Ah Soo", "POSTCODE": "536742", "REMARK": null, "XI": 33756.025, "YI": 36997.301, "Tier": "Tier 1"  }, "geometry": { "type": "Point", "coordinates": [ 103.885017593763664, 1.35087875261862 ] } },
{ "type": "Feature", "properties": { "POI_TYPE": "Secondary", "POI_NAME": "Presbyterian High School", "POI_ADD": "5209 Ang Mo Kio Avenue 6", "POSTCODE": "569845", "REMARK": null, "XI": 29029.126, "YI": 40416.03, "Tier": "Tier 2" }, "geometry": { "type": "Point", "coordinates": [ 103.842543250628495, 1.381796726595532 ] } },
{ "type": "Feature", "properties": { "POI_TYPE": "Secondary", "POI_NAME": "St. Anthony'S Canossian Secondary School", "POI_ADD": "1600 Bedok North Avenue 4", "POSTCODE": "469700", "REMARK": null, "XI": 40149.428, "YI": 35178.182, "Tier": "Tier 2" }, "geometry": { "type": "Point", "coordinates": [ 103.942465810429326, 1.334425850867511 ] } },
{ "type": "Feature", "properties": { "POI_TYPE": "Secondary", "POI_NAME": "St. Gabriel'S Secondary School", "POI_ADD": "24 Serangoon Avenue 1", "POSTCODE": "556140", "REMARK": null, "XI": 32654.626, "YI": 36537.515 , "Tier": "Tier 2" }, "geometry": { "type": "Point", "coordinates": [ 103.875120781996955, 1.346720720090217 ] } },
{ "type": "Feature", "properties": { "POI_TYPE": "Secondary", "POI_NAME": "St. Hilda'S Secondary School", "POI_ADD": "2 Tampines Street 82", "POSTCODE": "528986", "REMARK": null, "XI": 39425.345, "YI": 36887.943, "Tier": "Tier 2" }, "geometry": { "type": "Point", "coordinates": [ 103.935960026055128, 1.349888545368142 ] } },
{ "type": "Feature", "properties": { "POI_TYPE": "Secondary", "POI_NAME": "St. Margaret'S Secondary School", "POI_ADD": "111 Farrer Road", "POSTCODE": "259240", "REMARK": null, "XI": 25383.86, "YI": 33640.251, "Tier": "Tier 1"  }, "geometry": { "type": "Point", "coordinates": [ 103.809788869929406, 1.320518597518005 ] } },
{ "type": "Feature", "properties": { "POI_TYPE": "Secondary", "POI_NAME": "St. Patrick'S School", "POI_ADD": "490 East Coast Road", "POSTCODE": "429058", "REMARK": null, "XI": 37342.946, "YI": 32393.789, "Tier": "Tier 2" }, "geometry": { "type": "Point", "coordinates": [ 103.917247296019355, 1.309245577675703 ] } },
{ "type": "Feature", "properties": { "POI_TYPE": "Secondary", "POI_NAME": "Yuying Secondary School", "POI_ADD": "47 Hougang Avenue 1", "POSTCODE": "538884", "REMARK": null, "XI": 34327.151, "YI": 37690.175, "Tier": "Tier 3" }, "geometry": { "type": "Point", "coordinates": [ 103.890149621443939, 1.357144787655831 ] } },
{ "type": "Feature", "properties": { "POI_TYPE": "Secondary", "POI_NAME": "Anglo-Chinese School (Independent)", "POI_ADD": "121 Dover Road", "POSTCODE": "139650", "REMARK": null, "XI": 22061.268, "YI": 31600.581, "Tier": "Tier 1"  }, "geometry": { "type": "Point", "coordinates": [ 103.779934159081634, 1.302071842166055 ] } },
{ "type": "Feature", "properties": { "POI_TYPE": "Secondary", "POI_NAME": "Hwa Chong Institution", "POI_ADD": "661 Bukit Timah Road", "POSTCODE": "269734", "REMARK": null, "XI": 25121.245, "YI": 34172.383, "Tier": "Tier 1"  }, "geometry": { "type": "Point", "coordinates": [ 103.807429047485769, 1.325330970290922 ] } },
{ "type": "Feature", "properties": { "POI_TYPE": "Secondary", "POI_NAME": "Methodist Girls' School (Secondary)", "POI_ADD": "11 Blackmore Drive", "POSTCODE": "599986", "REMARK": null, "XI": 22510.092, "YI": 34895.112, "Tier": "Tier 1"  }, "geometry": { "type": "Point", "coordinates": [ 103.78396623063918, 1.331866528612442 ] } },
{ "type": "Feature", "properties": { "POI_TYPE": "Secondary", "POI_NAME": "Nanyang Girls' High School", "POI_ADD": "2 Linden Drive", "POSTCODE": "288683", "REMARK": null, "XI": 24500.527, "YI": 34830.879, "Tier": "Tier 1" }, "geometry": { "type": "Point", "coordinates": [ 103.801851434856218, 1.331286066822084 ] } },
{ "type": "Feature", "properties": { "POI_TYPE": "Secondary", "POI_NAME": "Northlight School", "POI_ADD": "2 Dunman Road", "POSTCODE": "439188", "REMARK": null, "XI": 34320.978, "YI": 32283.202 , "Tier": "Tier 3"}, "geometry": { "type": "Point", "coordinates": [ 103.89009342140848, 1.30824601964622 ] } },
{ "type": "Feature", "properties": { "POI_TYPE": "Secondary", "POI_NAME": "Raffles Girls' School (Secondary)", "POI_ADD": "20 Anderson Road", "POSTCODE": "259978", "REMARK": null, "XI": 27511.731, "YI": 32664.471, "Tier": "Tier 1"  }, "geometry": { "type": "Point", "coordinates": [ 103.828909000786879, 1.311694243400138 ] } },
{ "type": "Feature", "properties": { "POI_TYPE": "Secondary", "POI_NAME": "Raffles Institution", "POI_ADD": "1 Raffles Institution Lane", "POSTCODE": "575954", "REMARK": null, "XI": 29389.851, "YI": 36677.494 , "Tier": "Tier 1" }, "geometry": { "type": "Point", "coordinates": [ 103.845784737574888, 1.347986731454486 ] } },
{ "type": "Feature", "properties": { "POI_TYPE": "Secondary", "POI_NAME": "Singapore Chinese Girls' School", "POI_ADD": "190 Dunearn Road", "POSTCODE": "309437", "REMARK": null, "XI": 27465.727, "YI": 33607.172, "Tier": "Tier 1"  }, "geometry": { "type": "Point", "coordinates": [ 103.828495548760486, 1.32021969899468 ] } },
{ "type": "Feature", "properties": { "POI_TYPE": "Secondary", "POI_NAME": "St. Joseph'S Institution", "POI_ADD": "38 Malcolm Road", "POSTCODE": "308274", "REMARK": null, "XI": 27496.372, "YI": 34050.365, "Tier": "Tier 1"  }, "geometry": { "type": "Point", "coordinates": [ 103.828770871394866, 1.324227784706917 ] } },
{ "type": "Feature", "properties": { "POI_TYPE": "JC", "POI_NAME": "Anderson Junior College", "POI_ADD": "4500 Ang Mo Kio Avenue 6", "POSTCODE": "569843", "REMARK": null, "XI": 29288.017, "YI": 40180.595, "Tier": "Tier 2"  }, "geometry": { "type": "Point", "coordinates": [ 103.844869588725885, 1.379667544545381 ] } },
{ "type": "Feature", "properties": { "POI_TYPE": "JC", "POI_NAME": "Dunman High School", "POI_ADD": "53 Mount Sinai Road", "POSTCODE": "276880", "REMARK": null, "XI": 22746.432, "YI": 32912.003, "Tier": "Tier 1" }, "geometry": { "type": "Point", "coordinates": [ 103.786090360608782, 1.313932051860685 ] } },
{ "type": "Feature", "properties": { "POI_TYPE": "JC", "POI_NAME": "Jurong Junior College", "POI_ADD": "800 Corporation Road", "POSTCODE": "649809", "REMARK": null, "XI": 14684.661, "YI": 36885.576, "Tier": "Tier 3" }, "geometry": { "type": "Point", "coordinates": [ 103.713649259427569, 1.349864544956131 ] } },
{ "type": "Feature", "properties": { "POI_TYPE": "JC", "POI_NAME": "Meridian Junior College", "POI_ADD": "21 Pasir Ris Street 71", "POSTCODE": "518799", "REMARK": null, "XI": 39694.882, "YI": 39719.73, "Tier": "Tier 2"  }, "geometry": { "type": "Point", "coordinates": [ 103.938382889201918, 1.375498120664383 ] } },
{ "type": "Feature", "properties": { "POI_TYPE": "JC", "POI_NAME": "National Junior College", "POI_ADD": "37 Hillcrest Road", "POSTCODE": "288913", "REMARK": null, "XI": 24827.855, "YI": 34794.969, "Tier": "Tier 1"  }, "geometry": { "type": "Point", "coordinates": [ 103.804792669020301, 1.330961369046806 ] } },
{ "type": "Feature", "properties": { "POI_TYPE": "JC", "POI_NAME": "Pioneer Junior College", "POI_ADD": "21 Teck Whye Walk", "POSTCODE": "688258", "REMARK": null, "XI": 19135.483, "YI": 40785.054, "Tier": "Tier 3" }, "geometry": { "type": "Point", "coordinates": [ 103.753641270952514, 1.385131976697316 ] } },
{ "type": "Feature", "properties": { "POI_TYPE": "JC", "POI_NAME": "River Valley High School", "POI_ADD": "2 Malan Road", "POSTCODE": "109433", "REMARK": null, "XI": 24714.23, "YI": 28739.654, "Tier": "Tier 1" }, "geometry": { "type": "Point", "coordinates": [ 103.803772747641631, 1.276199198035417 ] } },
{ "type": "Feature", "properties": { "POI_TYPE": "JC", "POI_NAME": "Serangoon Junior College", "POI_ADD": "1033 Upper Serangoon Road", "POSTCODE": "534768", "REMARK": null, "XI": 34021.611, "YI": 38520.777, "Tier": "Tier 3"  }, "geometry": { "type": "Point", "coordinates": [ 103.887404248561978, 1.364656500397121 ] } },
{ "type": "Feature", "properties": { "POI_TYPE": "JC", "POI_NAME": "Tampines Junior College", "POI_ADD": "2 Tampines Avenue 9", "POSTCODE": "529564", "REMARK": null, "XI": 41640.726, "YI": 37739.798, "Tier": "Tier 3" }, "geometry": { "type": "Point", "coordinates": [ 103.955866958097403, 1.357591645842011 ] } },
{ "type": "Feature", "properties": { "POI_TYPE": "JC", "POI_NAME": "Temasek Junior College", "POI_ADD": "22 Bedok South Road", "POSTCODE": "469278", "REMARK": null, "XI": 39445.45, "YI": 33481.365, "Tier": "Tier 1"  }, "geometry": { "type": "Point", "coordinates": [ 103.936139647816702, 1.319080668199501 ] } },
{ "type": "Feature", "properties": { "POI_TYPE": "JC", "POI_NAME": "Victoria Junior College", "POI_ADD": "20 Marine Vista", "POSTCODE": "449035", "REMARK": null, "XI": 37499.57, "YI": 32177.63, "Tier": "Tier 1"  }, "geometry": { "type": "Point", "coordinates": [ 103.918654588427572, 1.30729067524074 ] } },
{ "type": "Feature", "properties": { "POI_TYPE": "JC", "POI_NAME": "Yishun Junior College", "POI_ADD": "3 Yishun Ring Road", "POSTCODE": "768675", "REMARK": null, "XI": 27597.577, "YI": 45127.04, "Tier": "Tier 3" }, "geometry": { "type": "Point", "coordinates": [ 103.829679281444626, 1.424401338359713 ] } },
{ "type": "Feature", "properties": { "POI_TYPE": "JC", "POI_NAME": "Anglo-Chinese Junior College", "POI_ADD": "25 Dover Close East", "POSTCODE": "139745", "REMARK": null, "XI": 22569.855, "YI": 31731.911, "Tier": "Tier 1" }, "geometry": { "type": "Point", "coordinates": [ 103.784504016602185, 1.303259673467506 ] } },
{ "type": "Feature", "properties": { "POI_TYPE": "JC", "POI_NAME": "Catholic Junior College", "POI_ADD": "129 Whitley Road", "POSTCODE": "297822", "REMARK": null, "XI": 28216.413, "YI": 34059.781, "Tier": "Tier 2"  }, "geometry": { "type": "Point", "coordinates": [ 103.835240829584919, 1.32431299487992 ] } },
{ "type": "Feature", "properties": { "POI_TYPE": "JC", "POI_NAME": "Nanyang Junior College", "POI_ADD": "128 Serangoon Avenue 3", "POSTCODE": "556111", "REMARK": null, "XI": 31756.879, "YI": 37025.945, "Tier": "Tier 2"  }, "geometry": { "type": "Point", "coordinates": [ 103.867053990274542, 1.351137970279904 ] } },
{ "type": "Feature", "properties": { "POI_TYPE": "JC", "POI_NAME": "St. Andrew'S Junior College", "POI_ADD": "55 Potong Pasir Ave 1", "POSTCODE": "358389", "REMARK": null, "XI": 31384.536, "YI": 35234.658, "Tier": "Tier 2"  }, "geometry": { "type": "Point", "coordinates": [ 103.863708179528487, 1.334938213814232 ] } },
{ "type": "Feature", "properties": { "POI_TYPE": "JC", "POI_NAME": "Anglo-Chinese School (Independent)", "POI_ADD": "121 Dover Road", "POSTCODE": "139650", "REMARK": null, "XI": 22061.268, "YI": 31600.581, "Tier": "Tier 1"  }, "geometry": { "type": "Point", "coordinates": [ 103.779934159081634, 1.302071842166055 ] } },
{ "type": "Feature", "properties": { "POI_TYPE": "JC", "POI_NAME": "Hwa Chong Institution", "POI_ADD": "661 Bukit Timah Road", "POSTCODE": "269734", "REMARK": null, "XI": 25121.245, "YI": 34172.383 , "Tier": "Tier 1"}, "geometry": { "type": "Point", "coordinates": [ 103.807429047485769, 1.325330970290922 ] } }
]
}
